"lat","long","accuracy","formatted_address","address_type","status","screenName"
41.3275459,19.8186982,"locality","Tirana, Albania","locality,political","OK","argument24"
28.4594965,77.0266383,"locality","Gurugram, Haryana, India","locality,political","OK","help_delhivery"
20.593684,78.96288,"country","India","country,political","OK","YourStoryCo"
12.9715987,77.5945627,"locality","Bengaluru, Karnataka, India","locality,political","OK","BeryllStona"
41.5849177,1.612949,"administrative_area_level_4","Igualada, Barcelona, Spain","administrative_area_level_4,political","OK","JosepM_Torra_C"
6.5243793,3.3792057,"locality","Lagos, Nigeria","locality,political","OK","ideasradiong"
29.31166,47.481766,"country","Kuwait","country,political","OK","newsktv"
52.282316,-1.584927,"locality","Warwick, UK","locality,political","OK","accountancymgr"
51.5073509,-0.1277583,"locality","London, UK","locality,political","OK","MitchTheTaxMan"
40.598019,-111.583187,"bar","8302 S Brighton Loop Rd, Brighton, UT 84121, USA","bar,establishment,food,lodging,point_of_interest,restaurant,tourist_attraction","OK","matt_greener"
28.2915637,-16.6291304,"administrative_area_level_1","Canary Islands, Spain","administrative_area_level_1,political","OK","AdmPcasGobcan"
43.296482,5.36978,"locality","Marseille, France","locality,political","OK","ird_fr"
52.3401908,-1.5266333,"neighborhood","Stoneleigh Park, New Cubbington, Stoneleigh, Kenilworth CV8, UK","neighborhood,political","OK","NFU_Poultry"
55.6760968,12.5683372,"locality","Copenhagen, Denmark","locality,political","OK","ChopstickChamp"
54.0919691,-1.377826,"locality","Aldborough, York YO51, UK","locality,political","OK","MartinBell1966"
53.3498053,-6.2603097,"locality","Dublin, Ireland","locality,political","OK","med_indonews"
23.022505,72.5713621,"locality","Ahmedabad, Gujarat, India","locality,political","OK","ahmedabadmirror"
52.486243,-1.890401,"locality","Birmingham, UK","locality,political","OK","Glassmammothuk"
-6.2087634,106.845599,"colloquial_area","Jakarta, Indonesia","colloquial_area,locality,political","OK","UNDPIndonesia"
33.6844202,73.0478848,"locality","Islamabad, Islamabad Capital Territory, Pakistan","locality,political","OK","MarComPvt"
25.7811397,84.7543413,"locality","Chapra, Bihar, India","locality,political","OK","ChhapraToday"
45.5063763,8.8152165,"locality","20012 Cuggiono, Metropolitan City of Milan, Italy","locality,political","OK","LogosNews"
12.9715987,77.5945627,"locality","Bengaluru, Karnataka, India","locality,political","OK","NEWS9TWEETS"
51.9244201,4.4777326,"locality","Rotterdam, Netherlands","locality,political","OK","crystalsphere89"
-6.9174639,107.6191228,"locality","Bandung, Bandung City, West Java, Indonesia","locality,political","OK","mrskasimbolon"
24.9559874,84.0187853,"establishment","Sasaram Junction, Dilia, Sasaram, Bihar 821115, India","establishment,point_of_interest,train_station,transit_station","OK","Vidya_Ka_Sagar"
28.4594965,77.0266383,"locality","Gurugram, Haryana, India","locality,political","OK","delhivery"
30.900965,75.8572758,"locality","Ludhiana, Punjab, India","locality,political","OK","JatinderBajaj_"
37.09024,-95.712891,"establishment","Independence, KS 67301, USA","establishment,home_goods_store,point_of_interest,store","OK","Deewalia"
32.3941803,-117.0801757,"establishment","Mar Mediterraneo Oriental, 22035 Tijuana, B.C., Mexico","establishment,parking,point_of_interest","OK","NarResearch"
20.9516658,85.0985236,"administrative_area_level_1","Odisha, India","administrative_area_level_1,political","OK","Kalingatv"
53.4875235,-2.2901264,"locality","Salford, UK","locality,political","OK","JackTattum"
28.6139391,77.2090212,"locality","New Delhi, Delhi, India","locality,political","OK","IncNaushad"
55.378051,-3.435973,"country","United Kingdom","country,political","OK","ValueTheMarkets"
20.593684,78.96288,"country","India","country,political","OK","Spenitt"
38.9071923,-77.0368707,"locality","Washington, DC, USA","locality,political","OK","IAPAC"
12.238333,-1.561593,"country","Burkina Faso","country,political","OK","infowakat"
23.2599333,77.412615,"locality","Bhopal, Madhya Pradesh, India","locality,political","OK","BansalNewsbpl"
48.856614,2.3522219,"locality","Paris, France","locality,political","OK","OECD_BizFin"
40.1521398,-8.857583,"locality","Figueira da Foz, Portugal","locality,political","OK","FozSupers"
1.373333,32.290275,"country","Uganda","country,political","OK","ubctvuganda"
-1.9440727,30.0618851,"locality","Kigali, Rwanda","locality,political","OK","JackieLumbasi"
61.892635,-6.9118061,"country","Faroe Islands","country,political","OK","KristinaHafoss"
52.3555177,-1.1743197,"administrative_area_level_1","England, UK","administrative_area_level_1,political","OK","WeAreSanctuary"
51.5073509,-0.1277583,"locality","London, UK","locality,political","OK","marychuks"
45.8150108,15.9819189,"locality","Zagreb, Croatia","locality,political","OK","QrysBinThynkn"
48.2081743,16.3738189,"locality","Vienna, Austria","locality,political","OK","AlleAzzoni"
36.1699412,-115.1398296,"locality","Las Vegas, NV, USA","locality,political","OK","AlfredVega"
41.563211,2.0088747,"locality","Terrassa, Barcelona, Spain","locality,political","OK","Trsempresa"
41.5911589,1.5208624,"administrative_area_level_1","Catalonia, Spain","administrative_area_level_1,political","OK","cimalsacat"
26.8466937,80.946166,"locality","Lucknow, Uttar Pradesh, India","locality,political","OK","DDNewsUP"
47.516231,14.550072,"country","Austria","country,political","OK","CosmeticsReil"
44.837789,-0.57918,"locality","Bordeaux, France","locality,political","OK","JulienMedias"
28.6139391,77.2090212,"locality","New Delhi, Delhi, India","locality,political","OK","RajeevKrSharma8"
51.5073509,-0.1277583,"locality","London, UK","locality,political","OK","DDWJournal"
51.5073509,-0.1277583,"locality","London, UK","locality,political","OK","researchlive"
28.2915637,-16.6291304,"establishment","Tenerife, Santa Cruz de Tenerife, Spain","establishment,natural_feature","OK","Cidecanarias"
31.5203696,74.3587473,"locality","Lahore, Punjab, Pakistan","locality,political","OK","Engr_AhsanLatif"
46.151241,14.995463,"country","Slovenia","country,political","OK","sledilnik"
48.856614,2.3522219,"locality","Paris, France","locality,political","OK","FaresAlussa"
-22.95764,18.49041,"country","Namibia","country,political","OK","Gifted_Namibia"
40.4172871,-82.907123,"administrative_area_level_1","Ohio, USA","administrative_area_level_1,political","OK","HeatherEyler"
51.5073509,-0.1277583,"locality","London, UK","locality,political","OK","wisemonkeyhous3"
-6.2153972,106.7779728,"premise","Graha Pena, Jl. Raya Kby. Lama No.12, RT.2/RW.13, Grogol Utara, Kec. Kby. Lama, Kota Jakarta Selatan, Daerah Khusus Ibukota Jakarta 12210, Indonesia","premise","OK","RakyatMerdeka99"
43.8562586,18.4130763,"locality","Sarajevo, Bosnia and Herzegovina","locality,political","OK","radiosarajevo"
-36.8937167,-60.3233499,"locality","Olavarría, Buenos Aires Province, Argentina","locality,political","OK","Amigovio00"
40.8087324,-73.6613652,"establishment","11 Harbor Park Dr, Port Washington, NY 11050, USA","establishment,point_of_interest","OK","AquariumLtd"
36.753768,3.0587561,"political","Algiers, Sidi M'Hamed, Algeria","political,sublocality,sublocality_level_1","OK","SMCArgelia"
20.593684,78.96288,"country","India","country,political","OK","livemint"
9.081999,8.675277,"country","Nigeria","country,political","OK","GuardianNigeria"
48.856614,2.3522219,"locality","Paris, France","locality,political","OK","docdrugztore"
48.856614,2.3522219,"locality","Paris, France","locality,political","OK","LaFabriqueEcolo"
23.4425277,57.4344451,"locality","Rustaq, Oman","locality,political","OK","dghssbg"
4.695135,96.7493993,"administrative_area_level_1","Aceh, Indonesia","administrative_area_level_1,political","OK","serambinews"
45.9635895,-66.6431151,"locality","Fredericton, NB, Canada","locality,political","OK","SaintJohnRocket"
46.818188,8.227512,"country","Switzerland","country,political","OK","covidnewsCH"
20.593684,78.96288,"country","India","country,political","OK","Nyksindia"
-37.8136276,144.9630576,"colloquial_area","Melbourne VIC, Australia","colloquial_area,locality,political","OK","WorldOfMarkyD"
46.2397495,15.2677063,"locality","Celje, Slovenia","locality,political","OK","JanLukac9"
-33.3106292,26.5255946,"locality","Grahamstown, South Africa","locality,political","OK","philipmach"
52.289125,-0.600363,"locality","Rushden, UK","locality,political","OK","dunouthere2020"
30.3419866,-97.676541,"establishment","8609 Cross Park Dr, Austin, TX 78754, USA","establishment,point_of_interest","OK","GlobalPandemics"
53.3498053,-6.2603097,"locality","Dublin, Ireland","locality,political","OK","barryhennessy"
20.2960587,85.8245398,"locality","Bhubaneswar, Odisha, India","locality,political","OK","Food_Odisha"
53.4807593,-2.2426305,"locality","Manchester, UK","locality,political","OK","coopnews"
31.3260152,75.5761829,"locality","Jalandhar, Punjab, India","locality,political","OK","KesariPunjab"
43.1406976,20.5213617,"locality","Novi Pazar, Serbia","locality,political","OK","Radio_Sto_plus"
48.6616037,9.3501336,"administrative_area_level_1","Baden-Württemberg, Germany","administrative_area_level_1,political","OK","dominikdirekt"
46.2043907,6.1431577,"locality","Geneva, Switzerland","locality,political","OK","UNHumanRights"
-0.023559,37.906193,"country","Kenya","country,political","OK","this_ability_ke"
55.378051,-3.435973,"country","United Kingdom","country,political","OK","RehabChambers"
48.7758459,9.1829321,"locality","Stuttgart, Germany","locality,political","OK","Joerg_Howe"
52.2593197,-7.1100702,"locality","Waterford, Ireland","locality,political","OK","WaterfordCityCt"
9.0764785,7.398574,"locality","Abuja, Nigeria","locality,political","OK","festus_nwakanma"
41.4931546,2.181871,"locality","08110 Montcada i Reixac, Barcelona, Spain","locality,political","OK","geri1996"
4.210484,101.975766,"country","Malaysia","country,political","OK","SinarOnline"
52.6368778,-1.1397592,"locality","Leicester, UK","locality,political","OK","kerrybe07758517"
48.856614,2.3522219,"locality","Paris, France","locality,political","OK","YouGovFrance"
12.9715987,77.5945627,"locality","Bengaluru, Karnataka, India","locality,political","OK","MindFleck"
28.6139391,77.2090212,"locality","New Delhi, Delhi, India","locality,political","OK","Gauravvphoto"
48.856614,2.3522219,"locality","Paris, France","locality,political","OK","Kozlika"
36.7167456,-4.4259962,"administrative_area_level_4","Málaga, Spain","administrative_area_level_4,political","OK","fguma"
2.926361,101.696445,"locality","Putrajaya, Malaysia","locality,political","OK","MKNJPM"
40.4167754,-3.7037902,"locality","Madrid, Spain","locality,political","OK","fsie_nacional"
46.227638,2.213749,"country","France","country,political","OK","WebmarketingCOM"
48.908612,2.439712,"locality","93000 Bobigny, France","locality,political","OK","lebimsa"
51.8072204,-0.8127664,"colloquial_area","Buckinghamshire, UK","colloquial_area,political","OK","TaxFairies"
28.6139391,77.2090212,"locality","New Delhi, Delhi, India","locality,political","OK","IIDIncubator"
48.893217,2.287864,"locality","92300 Levallois-Perret, France","locality,political","OK","_Afigec"
20.593684,78.96288,"country","India","country,political","OK","thehawk"
52.3666969,4.8945398,"locality","Amsterdam, Netherlands","locality,political","OK","Truesabina"
45.4642035,9.189982,"locality","Milan, Metropolitan City of Milan, Italy","locality,political","OK","selligentIT"
40.8087324,-73.6613652,"establishment","11 Harbor Park Dr, Port Washington, NY 11050, USA","establishment,point_of_interest","OK","AdaptOurWorld"
53.3976041,-2.9436644,"administrative_area_level_2","Merseyside, UK","administrative_area_level_2,political","OK","Donna_Scully"
46.2043907,6.1431577,"locality","Geneva, Switzerland","locality,political","OK","JMichelBFL"
26.1584354,94.5624426,"administrative_area_level_1","Nagaland, India","administrative_area_level_1,political","OK","INagaland"
-25.274398,133.775136,"country","Australia","country,political","OK","GongGasGirl"
10.5104642,7.4165053,"locality","Kaduna, Nigeria","locality,political","OK","MBUmar11"
40.4167754,-3.7037902,"locality","Madrid, Spain","locality,political","OK","suncabiclean"
55.6760968,12.5683372,"locality","Copenhagen, Denmark","locality,political","OK","ractowers"
40.4167754,-3.7037902,"locality","Madrid, Spain","locality,political","OK","VidaDeMadrid"
11.0168445,76.9558321,"locality","Coimbatore, Tamil Nadu, India","locality,political","OK","icliniq"
47.4208426,9.6594464,"locality","Lustenau, Austria","locality,political","OK","FischerKurt"
37.3890924,-5.9844589,"locality","Seville, Spain","locality,political","OK","isspaces"
52.2729944,-0.8755515,"administrative_area_level_2","Northamptonshire, UK","administrative_area_level_2,political","OK","SiliconBullet"
53.9062233,-1.0333573,"political","Yorkshire and the Humber, UK","political","OK","OCDigitalHealth"
51.5073509,-0.1277583,"locality","London, UK","locality,political","OK","WomensBudgetGrp"
55.378051,-3.435973,"country","United Kingdom","country,political","OK","ali_pals"
-19.015438,29.154857,"country","Zimbabwe","country,political","OK","OpenParlyZw"
48.856614,2.3522219,"locality","Paris, France","locality,political","OK","ISABIDOR"
53.3339857,-6.2544775,"establishment","70 Leeson Street Lower, Saint Peter's, Dublin 2, D02 VW13, Ireland","establishment,health,point_of_interest","OK","DublinRCC"
24.453884,54.3773438,"locality","Abu Dhabi - United Arab Emirates","locality,political","OK","aletihadae"
13.0826802,80.2707184,"locality","Chennai, Tamil Nadu, India","locality,political","OK","NewIndianXpress"
50.4673883,4.8719854,"locality","Namur, Belgium","locality,political","OK","Socialistes_PW"
50.8503396,4.3517103,"locality","Brussels, Belgium","locality,political","OK","epc_eu"
32.8259948,-97.1991729,"book_store","931 Melbourne Rd, Hurst, TX 76053, USA","book_store,establishment,point_of_interest,store","OK","Voidspacepro"
4.210484,101.975766,"country","Malaysia","country,political","OK","akmalarif90"
-1.2920659,36.8219462,"locality","Nairobi, Kenya","locality,political","OK","SelfineK"
37.4137536,-79.1422464,"locality","Lynchburg, VA, USA","locality,political","OK","DannerEvans"
3.139003,101.686855,"locality","Kuala Lumpur, Federal Territory of Kuala Lumpur, Malaysia","locality,political","OK","sanahabdullah"
40.4167754,-3.7037902,"locality","Madrid, Spain","locality,political","OK","ColegioTSMadrid"
42.6516719,-73.7724632,"establishment","113 Holland Ave, Albany, NY 12208, USA","establishment,health,hospital,point_of_interest","OK","CitizenKayS"
31.768319,35.21371,"locality","Jerusalem, Israel","locality,political","OK","NTarnopolsky"
-25.274398,133.775136,"country","Australia","country,political","OK","WaylindalComics"
10.4805937,-66.9036063,"locality","Caracas, Capital District, Venezuela","locality,political","OK","RCR750"
13.7189146,100.5671855,"political","Khlong Toei, Bangkok, Thailand","political,sublocality,sublocality_level_1","OK","PeachTr47293532"
48.8499198,2.6370411,"administrative_area_level_1","Île-de-France, France","administrative_area_level_1,political","OK","info_Paris_IDF"
53.3498053,-6.2603097,"locality","Dublin, Ireland","locality,political","OK","Health_HIV2030"
-1.2920659,36.8219462,"locality","Nairobi, Kenya","locality,political","OK","marcwatts05"
42.5750554,-8.1338558,"administrative_area_level_1","Galicia, Spain","administrative_area_level_1,political","OK","clusaga"
45.4642035,9.189982,"locality","Milan, Metropolitan City of Milan, Italy","locality,political","OK","cristinamacca"
55.378051,-3.435973,"country","United Kingdom","country,political","OK","LGAcomms"
41.1579438,-8.6291053,"locality","Porto, Portugal","locality,political","OK","AnaIsaRibeiro"
53.795984,-1.759398,"locality","Bradford, UK","locality,political","OK","UniofBradford"
41.5911589,1.5208624,"administrative_area_level_1","Catalonia, Spain","administrative_area_level_1,political","OK","Taula3sector"
7.873054,80.771797,"country","Sri Lanka","country,political","OK","virakesari_lk"
50.8427409,4.3809623,"establishment","Rue de la Loi 175, 1000 Bruxelles, Belgium","establishment,point_of_interest","OK","SDGwatcheurope"
12.9715987,77.5945627,"locality","Bengaluru, Karnataka, India","locality,political","OK","sonayukti"
40.656685,-4.6812086,"locality","Ávila‎, Ávila, Spain","locality,political","OK","JLopezTrader"
52.3666969,4.8945398,"locality","Amsterdam, Netherlands","locality,political","OK","Kattenkopjes"
13.0826802,80.2707184,"locality","Chennai, Tamil Nadu, India","locality,political","OK","TN_RTP"
52.336916,-6.4633381,"locality","Wexford, Ireland","locality,political","OK","Denise1Rogers"
9.0764785,7.398574,"locality","Abuja, Nigeria","locality,political","OK","vp_impact"
-17.8251657,31.03351,"locality","Harare, Zimbabwe","locality,political","OK","_ARIPO"
-6.2087634,106.845599,"colloquial_area","Jakarta, Indonesia","colloquial_area,locality,political","OK","beritaKBR"
23.810332,90.4125181,"locality","Dhaka, Bangladesh","locality,political","OK","RobinFakir1"
15.870032,100.992541,"country","Thailand","country,political","OK","IVLTeam"
7.2571325,5.2057909,"locality","Akure, Nigeria","locality,political","OK","Adaba889fm"
20.593684,78.96288,"country","India","country,political","OK","alitlbitalexis"
53.3498053,-6.2603097,"locality","Dublin, Ireland","locality,political","OK","Sharrow_irl"
52.2052973,0.1218195,"administrative_area_level_2","Cambridgeshire, UK","administrative_area_level_2,political","OK","IsoscelesCambs"
29.2985278,42.5509603,"colloquial_area","Middle East","colloquial_area,political","OK","marmoremena"
-21.2028539,-50.4536793,"locality","Araçatuba, State of São Paulo, Brazil","locality,political","OK","portalLr1"
11.1649219,-4.3051542,"locality","Bobo-Dioulasso, Burkina Faso","locality,political","OK","OoasWaho"
9.5493536,78.5890663,"locality","Paramakudi, Tamil Nadu, India","locality,political","OK","bhunjaram"
28.6139391,77.2090212,"locality","New Delhi, Delhi, India","locality,political","OK","stayunited21"
48.856614,2.3522219,"locality","Paris, France","locality,political","OK","patrickgaley"
46.2043907,6.1431577,"locality","Geneva, Switzerland","locality,political","OK","WHO"
40.463667,-3.74922,"country","Spain","country,political","OK","JuanGrvas"
53.4083714,-2.9915726,"locality","Liverpool, UK","locality,political","OK","Verossaclothing"
49.9928617,8.2472526,"locality","Mainz, Germany","locality,political","OK","juzer_gunners"
40.463667,-3.74922,"country","Spain","country,political","OK","GENERALI_es"
28.6139391,77.2090212,"locality","New Delhi, Delhi, India","locality,political","OK","FinancialXpress"
-33.9248685,18.4240553,"locality","Cape Town, South Africa","locality,political","OK","capetowntg"
24.453884,54.3773438,"locality","Abu Dhabi - United Arab Emirates","locality,political","OK","Benjaminones1"
56.4906712,-4.2026458,"administrative_area_level_1","Scotland, UK","administrative_area_level_1,political","OK","NHSResearchScot"
37.0901697,-95.712718,"establishment","Via Roma, 67301 Fawn Creek Township, Montgomery County","establishment,gas_station,point_of_interest","OK","Agenparl"
51.8985143,-8.4756035,"locality","Cork, Ireland","locality,political","OK","C103Cork"
40.7127753,-74.0059728,"locality","New York, NY, USA","locality,political","OK","LJMEDIA7"
17.385044,78.486671,"locality","Hyderabad, Telangana, India","locality,political","OK","justdivyaa"
51.5073509,-0.1277583,"locality","London, UK","locality,political","OK","BDBpitmans"
12.9715987,77.5945627,"locality","Bengaluru, Karnataka, India","locality,political","OK","HindiFilmibeat"
51.9691868,5.6653948,"locality","Wageningen, Netherlands","locality,political","OK","VeldhuizenLinda"
37.7749295,-122.4194155,"locality","San Francisco, CA, USA","locality,political","OK","randomlisasf"
51.7996834,19.7581217,"establishment","95-060 Brzeziny, Poland","establishment,point_of_interest","OK","KolskiJanek"
11.1271225,78.6568942,"administrative_area_level_1","Tamil Nadu, India","administrative_area_level_1,political","OK","SubinUdhayakum1"
50.8511614,4.3441763,"establishment","Place du Nouveau Marché aux Grains 10, 1000 Bruxelles, Belgium","establishment,point_of_interest","OK","felipemedmar"
53.4696968,-1.3259683,"administrative_area_level_2","South Yorkshire, UK","administrative_area_level_2,political","OK","2_many_clowns"
51.4879753,-0.1119362,"neighborhood","Kennington, London SE11 5DP, UK","neighborhood,political","OK","CountessofK"
51.5073509,-0.1277583,"locality","London, UK","locality,political","OK","PolStudiesAssoc"
28.6139391,77.2090212,"locality","New Delhi, Delhi, India","locality,political","OK","IndianRedCross"
37.09024,-95.712891,"country","United States","country,political","OK","FitnessFectory"
52.132633,5.291266,"country","Netherlands","country,political","OK","TheSysX"
50.8503396,4.3517103,"locality","Brussels, Belgium","locality,political","OK","mpat79"
41.87194,12.56738,"country","Italy","country,political","OK","pressitalia"
51.5073509,-0.1277583,"locality","London, UK","locality,political","OK","JamieAshBrown"
52.5200066,13.404954,"locality","Berlin, Germany","locality,political","OK","lutzmache"
61.52401,105.318756,"country","Russia","country,political","OK","expert_news"
1.352083,103.819836,"country","Singapore","country,political","OK","jasonpangjs"
20.593684,78.96288,"country","India","country,political","OK","swachhkatni"
28.6139391,77.2090212,"locality","New Delhi, Delhi, India","locality,political","OK","ians_india"
24.8689122,67.3366465,"route","Stadium Rd, Steel Town Bin Qasim Town, Karachi, Karachi City, Sindh, Pakistan","route","OK","lnhandmc"
36.190073,43.9930303,"locality","Erbil, Iraq","locality,political","OK","K24English"
52.396322,-0.730249,"locality","Kettering, UK","locality,political","OK","Kettering_Local"
49.2401572,6.9969327,"locality","Saarbrücken, Germany","locality,political","OK","DasRechtsportal"
33.0803564,74.8364413,"locality","Reasi 182311","locality,political","OK","bimpal_singh"
53.4875235,-2.2901264,"locality","Salford, UK","locality,political","OK","Gaer"
52.3555177,-1.1743197,"administrative_area_level_1","England, UK","administrative_area_level_1,political","OK","TWMCLtd"
52.6139686,0.8864021,"administrative_area_level_2","Norfolk, UK","administrative_area_level_2,political","OK","ResearchNurseD"
6.6666004,-1.6162709,"locality","Kumasi, Ghana","locality,political","OK","longmanghana"
41.5911589,1.5208624,"administrative_area_level_1","Catalonia, Spain","administrative_area_level_1,political","OK","interiorcat"
38.9586307,-77.3570028,"locality","Reston, VA, USA","locality,political","OK","ISOC_Foundation"
20.593684,78.96288,"country","India","country,political","OK","netamafia"
34.1080193,-118.267801,"establishment","2894 Rowena Ave, Los Angeles, CA 90039, USA","establishment,point_of_interest","OK","zelittlecub_"
9.0764785,7.398574,"locality","Abuja, Nigeria","locality,political","OK","CDDWestAfrica"
-1.2920659,36.8219462,"locality","Nairobi, Kenya","locality,political","OK","AgerFreddy"
24.8607343,67.0011364,"locality","Karachi, Karachi City, Sindh, Pakistan","locality,political","OK","ARYNEWSOFFICIAL"
38.7222524,-9.1393366,"locality","Lisbon, Portugal","locality,political","OK","diraquel"
48.2081743,16.3738189,"locality","Vienna, Austria","locality,political","OK","rob77ster"
41.5911589,1.5208624,"administrative_area_level_1","Catalonia, Spain","administrative_area_level_1,political","OK","elpuntavui"
20.593684,78.96288,"country","India","country,political","OK","cric_utkarsh_"
50.8881742,5.9794988,"locality","Heerlen, Netherlands","locality,political","OK","simone_gollesch"
-0.023559,37.906193,"country","Kenya","country,political","OK","ccrc_KE"
40.7127753,-74.0059728,"locality","New York, NY, USA","locality,political","OK","ClickZ"
51.919438,19.145136,"country","Poland","country,political","OK","Elzbieta_Brzozo"
24.8607343,67.0011364,"locality","Karachi, Karachi City, Sindh, Pakistan","locality,political","OK","ess_zehra"
9.0764785,7.398574,"locality","Abuja, Nigeria","locality,political","OK","nighealthwatch"
17.570692,-3.996166,"country","Mali","country,political","OK","WFP_Mali"
36.2950294,-95.8353425,"clothing_store","12321 E 96th St N, Owasso, OK 74055, USA","clothing_store,establishment,home_goods_store,point_of_interest,store","OK","SarahfromBath"
-26.2707593,28.1122679,"administrative_area_level_1","Gauteng, South Africa","administrative_area_level_1,political","OK","Nomie_Goliath"
45.4642035,9.189982,"locality","Milan, Metropolitan City of Milan, Italy","locality,political","OK","enricocassaro"
34.0522342,-118.2436849,"locality","Los Angeles, CA, USA","locality,political","OK","Rick82Ramirez"
35.6803997,139.7690174,"colloquial_area","Tokyo, Japan","colloquial_area,locality,political","OK","stargamewalk"
53.3498053,-6.2603097,"locality","Dublin, Ireland","locality,political","OK","rdoyle88"
55.378051,-3.435973,"country","United Kingdom","country,political","OK","Space_2BE"
46.2043907,6.1431577,"locality","Geneva, Switzerland","locality,political","OK","wto"
-0.789275,113.921327,"country","Indonesia","country,political","OK","tempodotco"
52.1306607,-3.7837117,"administrative_area_level_1","Wales, UK","administrative_area_level_1,political","OK","WENWales"
51.7709329,5.5684345,"locality","5351 Berghem, Netherlands","locality,political","OK","josverstegen"
20.593684,78.96288,"country","India","country,political","OK","taxmannindia"
55.378051,-3.435973,"country","United Kingdom","country,political","OK","DavidHeadViews"
52.3555177,-1.1743197,"administrative_area_level_1","England, UK","administrative_area_level_1,political","OK","jellysmash"
32.715738,-117.1610838,"locality","San Diego, CA, USA","locality,political","OK","rdesai7"
26.8466937,80.946166,"locality","Lucknow, Uttar Pradesh, India","locality,political","OK","1Hemanttiwari"
51.5073509,-0.1277583,"locality","London, UK","locality,political","OK","EnergyLiveNews"
31.5203696,74.3587473,"locality","Lahore, Punjab, Pakistan","locality,political","OK","hoomworkpk"
51.165691,10.451526,"country","Germany","country,political","OK","markteinblicke"
50.503887,4.469936,"country","Belgium","country,political","OK","petervantieghem"
42.2706716,-74.9245307,"establishment","454 Delhi Dr, Delhi, NY 13753, USA","establishment,point_of_interest,university","OK","KarunaGopal1"
40.4167754,-3.7037902,"locality","Madrid, Spain","locality,political","OK","CSITUP"
42.9814076,-81.2396174,"establishment","240 Waterloo St, London, ON N6B 2N4, Canada","establishment,point_of_interest,real_estate_agency","OK","EpsilonProds"
51.2194475,4.4024643,"locality","Antwerp, Belgium","locality,political","OK","KatiLiga"
51.5073509,-0.1277583,"locality","London, UK","locality,political","OK","jamesak47"
32.7788541,-96.8020847,"establishment","1100 Commerce St #1120, Dallas, TX 75242, USA","establishment,local_government_office,point_of_interest","OK","TommyNomad"
56.130366,-106.346771,"country","Canada","country,political","OK","TheDevinaKaur"
25.242453,86.9842256,"locality","Bhagalpur, Bihar, India","locality,political","OK","niteshsinghind"
51.5073509,-0.1277583,"locality","London, UK","locality,political","OK","ButlerJohnW"
-1.2920659,36.8219462,"locality","Nairobi, Kenya","locality,political","OK","rebecca_miano"
43.1675849,-2.0683581,"locality","20270 Irura, Gipuzkoa, Spain","locality,political","OK","GrupoAAguinaga"
6.4503024,2.3468195,"locality","Abomey Calavi, Benin","locality,political","OK","AdjibiMohamed"
43.7844397,-88.7878678,"administrative_area_level_1","Wisconsin, USA","administrative_area_level_1,political","OK","OmerAsadShaik1"
40.250319,-75.1662121,"administrative_area_level_3","Warrington Township, PA, USA","administrative_area_level_3,political","OK","PhbWarrington"
5.643589,100.4894179,"locality","Sungai Petani, Kedah, Malaysia","locality,political","OK","mdanialsurani"
13.3408807,74.7421427,"locality","Udupi, Karnataka, India","locality,political","OK","Ashraf9630"
9.081999,8.675277,"country","Nigeria","country,political","OK","Bimor93"
31.1048145,77.1734033,"locality","Shimla, Himachal Pradesh, India","locality,political","OK","HPDTofficial"
61.52401,105.318756,"country","Russia","country,political","OK","Egorka_playkey"
40.8087324,-73.6613652,"establishment","11 Harbor Park Dr, Port Washington, NY 11050, USA","establishment,point_of_interest","OK","Huawei_Cloud"
19.0759837,72.8776559,"locality","Mumbai, Maharashtra, India","locality,political","OK","mumbaitez"
40.4167754,-3.7037902,"locality","Madrid, Spain","locality,political","OK","AMPABlasdelezo"
28.4636296,-16.2518467,"locality","Santa Cruz de Tenerife, Spain","locality,political","OK","CisneBlanco20"
37.09024,-95.712891,"country","United States","country,political","OK","progressivepush"
32.0106646,44.3265272,"locality","Najaf, Iraq","locality,political","OK","Obaeis"
-33.9248685,18.4240553,"locality","Cape Town, South Africa","locality,political","OK","vemalelisheq"
45.114016,-73.8325292,"establishment","245 Rang Saint-Jean-Baptiste, Saint-Chrysostome, QC J0S 1R0, Canada","establishment,point_of_interest","OK","Phineas_Barnum"
13.3489958,74.7855559,"locality","Madhav Nagar, Manipal, Karnataka 576104, India","locality,political","OK","udayavani_web"
48.1351253,11.5819805,"locality","Munich, Germany","locality,political","OK","LEAD_digital"
41.87194,12.56738,"country","Italy","country,political","OK","Ifatticapitali"
37.09024,-95.712891,"country","United States","country,political","OK","KRajPokkiri"
51.2194475,4.4024643,"locality","Antwerp, Belgium","locality,political","OK","NvGemini"
41.8781136,-87.6297982,"locality","Chicago, IL, USA","locality,political","OK","CelebutanteBlog"
52.1544607,-9.5668633,"administrative_area_level_2","Kerry, Co. Kerry, Ireland","administrative_area_level_2,political","OK","KerryLibrary"
-30.559482,22.937506,"country","South Africa","country,political","OK","BarbaraAyissi1"
19.0759837,72.8776559,"locality","Mumbai, Maharashtra, India","locality,political","OK","dhruv803"
-2.2179704,115.66283,"colloquial_area","South East Asia","colloquial_area,political","OK","SEA_GLOBE"
38.6270025,-90.1994042,"locality","St. Louis, MO, USA","locality,political","OK","pamelarwalker"
35.6940309,139.7537719,"locality","Chiyoda City, Tokyo, Japan","locality,political","OK","NewsDigestWeb"
20.593684,78.96288,"country","India","country,political","OK","prajavani"
51.5073509,-0.1277583,"locality","London, UK","locality,political","OK","voxeu"
40.8087324,-73.6613652,"establishment","11 Harbor Park Dr, Port Washington, NY 11050, USA","establishment,point_of_interest","OK","pubperspectives"
48.87233,2.3484767,"establishment","47 Rue d'Enghien, 75010 Paris, France","establishment,point_of_interest","OK","santesurlenet"
2.189594,102.2500868,"locality","Malacca, Malaysia","locality,political","OK","melakafm"
48.856614,2.3522219,"locality","Paris, France","locality,political","OK","Intl_Assistance"
4.210484,101.975766,"country","Malaysia","country,political","OK","AstroRadioNews"
39.9041999,116.4073963,"locality","Beijing, China","locality,political","OK","CGTNOfficial"
17.8409173,-92.6189273,"administrative_area_level_1","Tabasco, Mexico","administrative_area_level_1,political","OK","TabascoHOY"
30.2849185,-97.7340567,"establishment","Austin, TX 78712, USA","establishment,point_of_interest,university","OK","tportal"
-25.274398,133.775136,"country","Australia","country,political","OK","ABCthedrum"
40.463667,-3.74922,"country","Spain","country,political","OK","CiudadanosCs"
30.3419866,-97.676541,"establishment","8609 Cross Park Dr, Austin, TX 78754, USA","establishment,point_of_interest","OK","IAM__Network"
54.5259614,15.2551187,"continent","Europe","continent,establishment,natural_feature","OK","CCRECEMR"
53.8337367,-2.4290148,"establishment","Great Britain, United Kingdom","establishment,natural_feature","OK","RoyalVolService"
48.778016,2.295092,"locality","92330 Sceaux, France","locality,political","OK","vincentcanneva"
40.4167754,-3.7037902,"locality","Madrid, Spain","locality,political","OK","juliohn90"
-1.2920659,36.8219462,"locality","Nairobi, Kenya","locality,political","OK","Tuko_co_ke"
21.485811,39.1925048,"locality","Jeddah Saudi Arabia","locality,political","OK","isdb_group"
20.593684,78.96288,"country","India","country,political","OK","Indsamachar"
51.4999428,-0.124611,"establishment","Houses of Parliament, Westminster, London SW1A 0AA, UK","establishment,point_of_interest","OK","CommonsSTC"
43.318334,-1.9812313,"locality","Donostia-San Sebastian, Gipuzkoa, Spain","locality,political","OK","koldolrobotikas"
36.1122935,-115.1674607,"establishment","Bally’s & Paris Station, 3645 S Las Vegas Blvd, Las Vegas, NV 89109, USA","establishment,point_of_interest,transit_station","OK","frijswijk"
48.856614,2.3522219,"locality","Paris, France","locality,political","OK","Myfaceclinic"
33.6844202,73.0478848,"locality","Islamabad, Islamabad Capital Territory, Pakistan","locality,political","OK","RoseMarry002"
1.352083,103.819836,"country","Singapore","country,political","OK","DadaThaakur"
1.373333,32.290275,"country","Uganda","country,political","OK","NserekoMp"
52.5200066,13.404954,"locality","Berlin, Germany","locality,political","OK","Modellflugzeuge"
51.1466612,0.8764549,"establishment","Templar House, Tannery Ln, Ashford TN23 1PL, UK","establishment,point_of_interest","OK","highweald"
51.165691,10.451526,"country","Germany","country,political","OK","LoveGuerillos"
51.5073509,-0.1277583,"locality","London, UK","locality,political","OK","FoundSciTech"
42.2625932,-71.8022934,"locality","Worcester, MA, USA","locality,political","OK","noevilproject"
20.593684,78.96288,"country","India","country,political","OK","ballialive_"
30.4277547,-9.5981072,"locality","Agadir 80000, Morocco","locality,political","OK","SadiCarnot7"
61.92411,25.7481511,"country","Finland","country,political","OK","GamificationGG"
48.2081743,16.3738189,"locality","Vienna, Austria","locality,political","OK","j0hnhaas"
43.9563649,-92.462235,"establishment","4544 Canal Pl SE, Rochester, MN 55904, USA","establishment,health,point_of_interest","OK","JellyJay65"
51.5073509,-0.1277583,"locality","London, UK","locality,political","OK","PatriciaDurr"
52.086938,-0.26422,"locality","Biggleswade SG18, UK","locality,political","OK","TGSystemsUK"
12.9715987,77.5945627,"locality","Bengaluru, Karnataka, India","locality,political","OK","MIshtiyakk79"
35.6761919,139.6503106,"administrative_area_level_1","Tokyo, Japan","administrative_area_level_1,political","OK","yusuke_suzumura"
51.5073509,-0.1277583,"locality","London, UK","locality,political","OK","The_ACU"
28.6139391,77.2090212,"locality","New Delhi, Delhi, India","locality,political","OK","policemedianews"
50.8503396,4.3517103,"locality","Brussels, Belgium","locality,political","OK","COTANCE_"
25.5940947,85.1375645,"locality","Patna, Bihar, India","locality,political","OK","mohanamrendra"
22.572646,88.363895,"locality","Kolkata, West Bengal, India","locality,political","OK","Sakshi44430176"
9.0764785,7.398574,"locality","Abuja, Nigeria","locality,political","OK","AusHCAbuja"
54.6792422,-5.9591102,"colloquial_area","Newtownabbey, UK","colloquial_area,political","OK","Blazerunner2049"
51.3810641,-2.3590167,"locality","Bath, UK","locality,political","OK","alifeinbooks"
30.2849185,-97.7340567,"establishment","Austin, TX 78712, USA","establishment,point_of_interest,university","OK","fmtoday"
-26.2041028,28.0473051,"locality","Johannesburg, South Africa","locality,political","OK","dynamic_dna"
52.3666969,4.8945398,"locality","Amsterdam, Netherlands","locality,political","OK","IBFD_on_Tax"
34.0522342,-118.2436849,"locality","Los Angeles, CA, USA","locality,political","OK","TheJoyWriterx2"
33.4483771,-112.0740373,"locality","Phoenix, AZ, USA","locality,political","OK","LearnBrite"
56.4906712,-4.2026458,"administrative_area_level_1","Scotland, UK","administrative_area_level_1,political","OK","ScotHealthInno"
29.3649734,-81.9670322,"locality","Fort McCoy, FL 32134, USA","locality,political","OK","Mikey_Stool"
4.210484,101.975766,"country","Malaysia","country,political","OK","Progress__MY"
51.5073509,-0.1277583,"locality","London, UK","locality,political","OK","Unite_MHNA"
50.8503396,4.3517103,"locality","Brussels, Belgium","locality,political","OK","CER_railways"
-7.7955798,110.3694896,"locality","Yogyakarta, Yogyakarta City, Special Region of Yogyakarta, Indonesia","locality,political","OK","humas_jogja"
52.5200066,13.404954,"locality","Berlin, Germany","locality,political","OK","DUF_Forum"
56.130366,-106.346771,"country","Canada","country,political","OK","AngsumansServer"
40.4167754,-3.7037902,"locality","Madrid, Spain","locality,political","OK","vmdermatologo"
-26.205693,28.036596,"street_address","45 Commissioner St, Johannesburg, 2000, South Africa","street_address","OK","GautengHealth"
28.687023,77.3177246,"political","Taharpur, Taharpur Village, Dilshad Garden, Delhi, 110095, India","political,sublocality,sublocality_level_3","OK","rgssh4"
-25.274398,133.775136,"country","Australia","country,political","OK","IDHjournal"
53.7263529,18.9323043,"locality","Kwidzyn, Poland","locality,political","OK","ThisIsInternetz"
25.2048493,55.2707828,"locality","Dubai - United Arab Emirates","locality,political","OK","ThompsonStev1"
39.074208,21.824312,"country","Greece","country,political","OK","gtpgr"
53.3498053,-6.2603097,"locality","Dublin, Ireland","locality,political","OK","EthicsUCD"
19.8967662,-155.5827818,"administrative_area_level_1","Hawaii, USA","administrative_area_level_1,political","OK","AmandaEllisGEM"
28.4594965,77.0266383,"locality","Gurugram, Haryana, India","locality,political","OK","AjeetSinghIND"
12.9715987,77.5945627,"locality","Bengaluru, Karnataka, India","locality,political","OK","promptcloud"
30.0934035,31.3157292,"establishment","111 El Hegaz St, El-Montaza, Heliopolis, Cairo Governorate, Egypt","establishment,movie_theater,point_of_interest","OK","Wainnaa"
17.4832536,78.542361,"route","Neredmet X Rd, Vayupuri, Sainikpuri, Secunderabad, Telangana, India","route","OK","RachakondaCop"
51.6434193,0.079493,"establishment","13 Oakwood Hill Industrial Estate, Loughton IG10 3TZ, UK","establishment,point_of_interest,store","OK","SnowAndBeach"
51.628611,-0.748229,"locality","High Wycombe, UK","locality,political","OK","CDVIUK"
41.3850639,2.1734035,"locality","Barcelona, Spain","locality,political","OK","UOCinfocom"
4.1784503,73.510636,"establishment","Orchid Magu, Malé, Maldives","establishment,mosque,place_of_worship,point_of_interest","OK","MVIaffairs"
40.463667,-3.74922,"country","Spain","country,political","OK","ReclamaConsumo"
25.7438916,89.275227,"locality","Rangpur, Bangladesh","locality,political","OK","Sakhawat352535"
53.3498053,-6.2603097,"locality","Dublin, Ireland","locality,political","OK","BenHotspur"
57.16476,-2.1015257,"establishment","King's College, Aberdeen AB24 3FX, UK","establishment,point_of_interest,university","OK","cpd_services"
51.5073509,-0.1277583,"locality","London, UK","locality,political","OK","WFP_UK"
28.7040592,77.1024902,"administrative_area_level_1","Delhi, India","administrative_area_level_1,political","OK","786wasimkhan123"
54.762441,-1.32895,"locality","Peterlee, UK","locality,political","OK","PeterleeBiz"
37.4896399,-82.4381541,"establishment","Creek, Raccoon, KY 41557, USA","establishment,point_of_interest","OK","NorwegianDuck"
50.8503396,4.3517103,"locality","Brussels, Belgium","locality,political","OK","CullenInt"
48.856614,2.3522219,"locality","Paris, France","locality,political","OK","BiomimExpo"
10.5104642,7.4165053,"locality","Kaduna, Nigeria","locality,political","OK","contactkdsg"
32.5007037,-94.7404891,"locality","Longview, TX, USA","locality,political","OK","DiabeticCyborgg"
-1.2920659,36.8219462,"locality","Nairobi, Kenya","locality,political","OK","Mouchieee"
32.3546679,-89.3985283,"administrative_area_level_1","Mississippi, USA","administrative_area_level_1,political","OK","vwchilders13"
52.335589,-2.061906,"locality","Bromsgrove, UK","locality,political","OK","MagnapowerUK"
54.5259614,15.2551187,"continent","Europe","continent,establishment,natural_feature","OK","scibus"
50.4108095,4.444643,"locality","Charleroi, Belgium","locality,political","OK","maximardy"
59.4369608,24.7535747,"locality","Tallinn, Estonia","locality,political","OK","JanFJensma"
52.5200066,13.404954,"locality","Berlin, Germany","locality,political","OK","KatriBertram"
40.8125777,0.5214423,"locality","Tortosa, Tarragona, Spain","locality,political","OK","JoanSabateB"
45.4642035,9.189982,"locality","Milan, Metropolitan City of Milan, Italy","locality,political","OK","patricktrancu"
24.8607343,67.0011364,"locality","Karachi, Karachi City, Sindh, Pakistan","locality,political","OK","nicvd_karachi"
-33.9142889,18.4176178,"clothing_store","39 Somerset Rd, Green Point, Cape Town, 8001, South Africa","clothing_store,establishment,point_of_interest,store","OK","iamSivN"
38.9071923,-77.0368707,"locality","Washington, DC, USA","locality,political","OK","participatory"
20.593684,78.96288,"country","India","country,political","OK","IndianExpress"
0.3475964,32.5825197,"locality","Kampala, Uganda","locality,political","OK","drmhoira"
1.5532783,110.3592127,"administrative_area_level_1","Sarawak, Malaysia","administrative_area_level_1,political","OK","soyetships13"
28.4594965,77.0266383,"locality","Gurugram, Haryana, India","locality,political","OK","DrNancyMalik"
52.2296756,21.0122287,"locality","Warsaw, Poland","locality,political","OK","FundacjaLiderek"
-1.2920659,36.8219462,"locality","Nairobi, Kenya","locality,political","OK","infonondokenya"
-25.855978,25.64031,"locality","Mahikeng, South Africa","locality,political","OK","ArtsSportNwpg"
41.652251,-4.7245321,"locality","Valladolid, Spain","locality,political","OK","COFValladolid"
12.6392316,-8.0028892,"locality","Bamako, Mali","locality,political","OK","LjaOhada"
19.0759837,72.8776559,"locality","Mumbai, Maharashtra, India","locality,political","OK","Onkar_jadhavv"
4.210484,101.975766,"country","Malaysia","country,political","OK","PPUMOnline"
46.811434,1.686779,"locality","36000 Châteauroux, France","locality,political","OK","cci_indre"
3.139003,101.686855,"locality","Kuala Lumpur, Federal Territory of Kuala Lumpur, Malaysia","locality,political","OK","LinHao_KL"
51.0543422,3.7174243,"locality","Ghent, Belgium","locality,political","OK","kevinjaybe"
-2.2179704,115.66283,"colloquial_area","South East Asia","colloquial_area,political","OK","AsiaNews_FR"
45.4642035,9.189982,"locality","Milan, Metropolitan City of Milan, Italy","locality,political","OK","IlSedutomulo"
50.62925,3.057256,"locality","Lille, France","locality,political","OK","VDNLille"
27.9658533,-82.8001026,"locality","Clearwater, FL, USA","locality,political","OK","KathySings4u"
58.587745,16.192421,"locality","Norrköping, Sweden","locality,political","OK","KenthLampa"
43.467517,-79.6876659,"locality","Oakville, ON, Canada","locality,political","OK","Franpan89"
53.3498053,-6.2603097,"locality","Dublin, Ireland","locality,political","OK","ocallaghan_colm"
53.9332706,-116.5765035,"administrative_area_level_1","Alberta, Canada","administrative_area_level_1,political","OK","SmuggyBear80"
-6.2087634,106.845599,"colloquial_area","Jakarta, Indonesia","colloquial_area,locality,political","OK","ptwikagedungID"
53.230688,-0.540579,"locality","Lincoln, UK","locality,political","OK","StreetsHeaver"
-37.8136276,144.9630576,"colloquial_area","Melbourne VIC, Australia","colloquial_area,locality,political","OK","DavidDavisMLC"
54.664097,-2.752708,"locality","Penrith, UK","locality,political","OK","johncoxsports"
55.0182399,-1.4858436,"administrative_area_level_3","North Tyneside District, UK","administrative_area_level_3,political","OK","NTynesideVODA"
50.8503396,4.3517103,"locality","Brussels, Belgium","locality,political","OK","deptCJM"
44.016521,21.005859,"country","Serbia","country,political","OK","Milinkoooo"
28.5355161,77.3910265,"locality","Noida, Uttar Pradesh, India","locality,political","OK","QuintFit"
41.3850639,2.1734035,"locality","Barcelona, Spain","locality,political","OK","UOCeimt"
41.5911589,1.5208624,"administrative_area_level_1","Catalonia, Spain","administrative_area_level_1,political","OK","tributscat"
23.424076,53.847818,"country","United Arab Emirates","country,political","OK","smashitv_en"
28.6139391,77.2090212,"locality","New Delhi, Delhi, India","locality,political","OK","joydeepgupta"
1.352083,103.819836,"country","Singapore","country,political","OK","SEACoronavirus"
26.2171906,50.1971381,"locality","Al Khobar Saudi Arabia","locality,political","OK","lewaabukhait"
48.2081743,16.3738189,"locality","Vienna, Austria","locality,political","OK","IAEANE"
46.0569465,14.5057515,"locality","Ljubljana, Slovenia","locality,political","OK","ZebraBI"
51.5073509,-0.1277583,"locality","London, UK","locality,political","OK","britanniapandi"
43.0389025,-87.9064736,"locality","Milwaukee, WI, USA","locality,political","OK","TheFilmBully"
35.6688293,139.7067474,"clothing_store","4-chōme-28-18 Jingūmae, Shibuya City, Tōkyō-to 150-0001, Japan","clothing_store,establishment,point_of_interest,store","OK","Reo5a"
32.7396767,74.8697195,"electronics_store","Tangewali gali kachi chaawni, Pakki Dhaki, Jammu, Jammu and Kashmir 180001","electronics_store,establishment,home_goods_store,point_of_interest,store","OK","HappaNarinder"
19.0759837,72.8776559,"locality","Mumbai, Maharashtra, India","locality,political","OK","ChaiPeCharcha__"
52.5200066,13.404954,"locality","Berlin, Germany","locality,political","OK","julianikomusic"
50.9847679,11.02988,"locality","Erfurt, Germany","locality,political","OK","thueringende"
18.220833,-66.590149,"country","Puerto Rico","country,political","OK","covid19pr"
22.845641,89.5403279,"locality","Khulna, Bangladesh","locality,political","OK","uddin_meftah"
25.2048493,55.2707828,"locality","Dubai - United Arab Emirates","locality,political","OK","claireindubai"
-33.9248685,18.4240553,"locality","Cape Town, South Africa","locality,political","OK","eugeneyiga"
13.0826802,80.2707184,"locality","Chennai, Tamil Nadu, India","locality,political","OK","curiehealth1"
35.7126775,139.761989,"establishment","7-chōme-3-1 Hongō, Bunkyo City, Tōkyō-to 113-8654, Japan","establishment,point_of_interest,university","OK","TaTohru"
54.1162322,-3.233793,"establishment","Suite 108, College House, Howard St, Barrow-in-Furness LA14 1NB, UK","establishment,point_of_interest","OK","souf2norf"
14.6397862,121.03707,"establishment","Sgt, E.A Sgt. Esguerra Ave, Diliman, Quezon City, 1103 Metro Manila, Philippines","establishment,point_of_interest","OK","DZMMTeleRadyo"
31.8456816,-102.3676431,"locality","Odessa, TX, USA","locality,political","OK","brite_eg"
40.4167754,-3.7037902,"locality","Madrid, Spain","locality,political","OK","MicroCleanSpain"
28.6139391,77.2090212,"locality","New Delhi, Delhi, India","locality,political","OK","YASMinistry"
51.068785,-1.794472,"locality","Salisbury, UK","locality,political","OK","5_RiversTherapy"
30.3419866,-97.676541,"establishment","8609 Cross Park Dr, Austin, TX 78754, USA","establishment,point_of_interest","OK","DPDgroup_news"
19.0759837,72.8776559,"locality","Mumbai, Maharashtra, India","locality,political","OK","skalamz"
28.6139391,77.2090212,"locality","New Delhi, Delhi, India","locality,political","OK","airnewsalerts"
39.6172063,-8.6521422,"administrative_area_level_3","Fátima, 2495 Fátima, Portugal","administrative_area_level_3,political","OK","FatimaLandMary"
-26.2041028,28.0473051,"locality","Johannesburg, South Africa","locality,political","OK","AnnieAnderson49"
45.5415526,10.2118019,"locality","Brescia, Province of Brescia, Italy","locality,political","OK","aifositalia"
11.0168445,76.9558321,"locality","Coimbatore, Tamil Nadu, India","locality,political","OK","SathishkovaiIT"
35.126413,33.429859,"country","Cyprus","country,political","OK","Hope_NeverDies"
51.5073509,-0.1277583,"locality","London, UK","locality,political","OK","copfromdrop"
-27.3936728,26.5129174,"establishment","Vaal River, South Africa","establishment,natural_feature","OK","THIZOZO_MOKOENA"
54.664097,-2.752708,"locality","Penrith, UK","locality,political","OK","disruptordavies"
51.627903,0.418397,"locality","Billericay, UK","locality,political","OK","skallagrigg66"
-34.9284989,138.6007456,"colloquial_area","Adelaide SA, Australia","colloquial_area,locality,political","OK","sa_aust"
37.09024,-95.712891,"country","United States","country,political","OK","GregoryDEvans"
13.0826802,80.2707184,"locality","Chennai, Tamil Nadu, India","locality,political","OK","VendharMediaTV"
55.378051,-3.435973,"country","United Kingdom","country,political","OK","the_ddu"
42.333355,-88.2667534,"locality","McHenry, IL, USA","locality,political","OK","MedelaHCPros"
19.0759837,72.8776559,"locality","Mumbai, Maharashtra, India","locality,political","OK","boomhealthnews"
45.5454787,11.5354214,"locality","36100 Vicenza, Province of Vicenza, Italy","locality,political","OK","Sicurya"
-29.0123926,29.8641634,"locality","Estcourt, 3310, South Africa","locality,political","OK","Sanele_Macton"
22.3193039,114.1693611,"country","Hong Kong","country,political","OK","LaymanYuCK"
24.8607343,67.0011364,"locality","Karachi, Karachi City, Sindh, Pakistan","locality,political","OK","arznewsnetwork"
22.258652,71.1923805,"administrative_area_level_1","Gujarat, India","administrative_area_level_1,political","OK","outofjobindian"
20.593684,78.96288,"country","India","country,political","OK","forbes_india"
51.5742447,0.4856781,"administrative_area_level_2","Essex, UK","administrative_area_level_2,political","OK","Essex_CC"
26.820553,30.802498,"country","Egypt","country,political","OK","FAOinNENA_EN"
-30.559482,22.937506,"country","South Africa","country,political","OK","AshBurnsT"
15.5736599,73.793172,"locality","Parra, Goa 403519, India","locality,political","OK","MichaelLobo76"
20.593684,78.96288,"country","India","country,political","OK","ApoorvSriva"
12.9715987,77.5945627,"locality","Bengaluru, Karnataka, India","locality,political","OK","publictvnews"
41.5911589,1.5208624,"administrative_area_level_1","Catalonia, Spain","administrative_area_level_1,political","OK","laxarxa"
25.2048493,55.2707828,"locality","Dubai - United Arab Emirates","locality,political","OK","KTCityTimes"
12.9715987,77.5945627,"locality","Bengaluru, Karnataka, India","locality,political","OK","suvarnanewstv"
20.593684,78.96288,"country","India","country,political","OK","ZeeNewsEnglish"
54.6871555,25.2796514,"locality","Vilnius, Lithuania","locality,political","OK","eurogender"
51.5073509,-0.1277583,"locality","London, UK","locality,political","OK","CJ_Appleby"
30.3419866,-97.676541,"establishment","8609 Cross Park Dr, Austin, TX 78754, USA","establishment,point_of_interest","OK","cotecna"
27.7172453,85.3239605,"locality","Kathmandu 44600, Nepal","locality,political","OK","forum_asia"
51.6858341,-3.3821421,"colloquial_area","South Wales, Mountain Ash CF45 4DA, UK","colloquial_area,political","OK","Barnaby_Flynn"
54.978252,-1.61778,"locality","Newcastle upon Tyne, UK","locality,political","OK","1HowardWalker"
20.593684,78.96288,"country","India","country,political","OK","WIONews"
34.0522342,-118.2436849,"locality","Los Angeles, CA, USA","locality,political","OK","ClassifiedsCal"
33.0185039,-80.1756481,"locality","Summerville, SC, USA","locality,political","OK","KendallHarmon6"
42.3992682,-83.3155005,"bakery","15375 Inkster Rd, Livonia, MI 48154, USA","bakery,establishment,food,point_of_interest,store","OK","rubusmubu"
40.813616,-96.7025955,"locality","Lincoln, NE, USA","locality,political","OK","LincatLtd"
37.09024,-95.712891,"country","United States","country,political","OK","iLoveMycellf"
53.0711149,-3.8080783,"colloquial_area","North Wales, UK","colloquial_area,political","OK","DebsF319"
39.399872,-8.224454,"country","Portugal","country,political","OK","KISSFMbeats"
36.8507689,-76.2858726,"locality","Norfolk, VA, USA","locality,political","OK","AngliaHub"
51.7520209,-1.2577263,"locality","Oxford, UK","locality,political","OK","1GlobalAcademy"
13.0826802,80.2707184,"locality","Chennai, Tamil Nadu, India","locality,political","OK","ventureindia"
43.2630126,-2.9349852,"locality","Bilbao, Biscay, Spain","locality,political","OK","deia_eus"
51.7548164,-1.2543668,"establishment","Oxford OX1 2JD, UK","establishment,point_of_interest,university","OK","Oxfolk"
50.8503396,4.3517103,"locality","Brussels, Belgium","locality,political","OK","David_McNair"
51.2719376,0.5150882,"establishment","3, The old brewery, Buckland Rd, Maidstone ME16 0DZ, UK","establishment,health,point_of_interest","OK","FletchTheTrader"
9.9312328,76.2673041,"locality","Kochi, Kerala, India","locality,political","OK","xpresskerala"
45.5016889,-73.567256,"locality","Montreal, QC, Canada","locality,political","OK","CRG_CRM"
28.5355161,77.3910265,"locality","Noida, Uttar Pradesh, India","locality,political","OK","raydeep"
55.378051,-3.435973,"country","United Kingdom","country,political","OK","EMJReviews"
40.8087324,-73.6613652,"establishment","11 Harbor Park Dr, Port Washington, NY 11050, USA","establishment,point_of_interest","OK","LR_Marine"
40.4167515,-3.7038322,"administrative_area_level_1","Community of Madrid, Madrid, Spain","administrative_area_level_1,political","OK","Spain_India"
51.85762,-4.312131,"locality","Carmarthen SA31, UK","locality,political","OK","FocusCarmsHub"
55.378051,-3.435973,"country","United Kingdom","country,political","OK","neirajones"
51.481581,-3.17909,"locality","Cardiff, UK","locality,political","OK","WCVACymru"
30.0444196,31.2357116,"locality","Cairo, Cairo Governorate, Egypt","locality,political","OK","Shorouk_News"
23.424076,53.847818,"country","United Arab Emirates","country,political","OK","alittihadSport"
51.5073509,-0.1277583,"locality","London, UK","locality,political","OK","globalwebindex"
47.497912,19.040235,"locality","Budapest, Hungary","locality,political","OK","AndreaGerak"
40.8087324,-73.6613652,"establishment","11 Harbor Park Dr, Port Washington, NY 11050, USA","establishment,point_of_interest","OK","_TCglobal"
59.3335315,18.0609209,"establishment","Bryggargatan 2, 111 21 Stockholm, Sweden","establishment,food,point_of_interest,restaurant","OK","Dena_tahmasebi"
43.296482,5.36978,"locality","Marseille, France","locality,political","OK","Greenpeace_13"
20.593684,78.96288,"country","India","country,political","OK","its_UzairKhan"
50.9085955,0.2494166,"administrative_area_level_2","East Sussex, UK","administrative_area_level_2,political","OK","JTownend"
19.4326077,-99.133208,"locality","Mexico City, CDMX, Mexico","locality,political","OK","ariedvidal"
40.5372512,-3.6372245,"locality","Alcobendas, Madrid, Spain","locality,political","OK","ALCBDS_Comercio"
9.30769,2.315834,"country","Benin","country,political","OK","oboubeblanchard"
51.5073509,-0.1277583,"locality","London, UK","locality,political","OK","LovePRLondon"
39.4699075,-0.3762881,"locality","Valencia, Spain","locality,political","OK","AjuntamentVLC"
15.2993265,74.123996,"administrative_area_level_1","Goa, India","administrative_area_level_1,political","OK","RohanKhaunte"
46.2043907,6.1431577,"locality","Geneva, Switzerland","locality,political","OK","iapewec"
13.0826802,80.2707184,"locality","Chennai, Tamil Nadu, India","locality,political","OK","equitybulls"
46.227638,2.213749,"country","France","country,political","OK","LiriKopaci"
40.4167754,-3.7037902,"locality","Madrid, Spain","locality,political","OK","Director_TIC"
-7.7129424,110.0092652,"locality","Purworejo, Purworejo Regency, Central Java, Indonesia","locality,political","OK","purworejo24"
23.5880307,58.3828717,"locality","Muscat, Oman","locality,political","OK","SinbadsOPG"
26.8466937,80.946166,"locality","Lucknow, Uttar Pradesh, India","locality,political","OK","mayankrock786"
37.09024,-95.712891,"country","United States","country,political","OK","robert_weiter"
51.3703748,6.1724031,"locality","Venlo, Netherlands","locality,political","OK","BarryChalgoum"
55.378051,-3.435973,"country","United Kingdom","country,political","OK","philip_esq"
53.3498053,-6.2603097,"locality","Dublin, Ireland","locality,political","OK","tierneysimon"
9.3466822,2.6090043,"locality","Parakou, Benin","locality,political","OK","aroukayat"
2.926361,101.696445,"locality","Putrajaya, Malaysia","locality,political","OK","KKMPutrajaya"
43.610769,3.876716,"locality","Montpellier, France","locality,political","OK","RadioAviva88Fm"
45.5016889,-73.567256,"locality","Montreal, QC, Canada","locality,political","OK","xecretcode"
13.0826802,80.2707184,"locality","Chennai, Tamil Nadu, India","locality,political","OK","ThanthiTV"
36.7167456,-4.4259962,"administrative_area_level_4","Málaga, Spain","administrative_area_level_4,political","OK","JoseRamiro5"
55.378051,-3.435973,"country","United Kingdom","country,political","OK","kindness_tweet"
34.0836708,74.7972825,"locality","Srinagar","locality,political","OK","PIBSrinagar"
20.593684,78.96288,"country","India","country,political","OK","ZeeNews"
14.6061017,121.065041,"neighborhood","Camp Aguinaldo, Quezon City, Metro Manila, Philippines","neighborhood,political","OK","NDRRMC_OpCen"
20.593684,78.96288,"country","India","country,political","OK","f1_ind"
12.9715987,77.5945627,"locality","Bengaluru, Karnataka, India","locality,political","OK","MeinTeraHero"
40.4165143,-3.6992115,"establishment","Carrera de S. Jerónimo, 32, 28014 Madrid, Spain","establishment,food,point_of_interest,restaurant","OK","JBallesterosmlg"
53.1423672,-7.6920536,"establishment","Ireland","establishment,natural_feature","OK","cosainireland"
-1.2920659,36.8219462,"locality","Nairobi, Kenya","locality,political","OK","UNFPAKen"
14.497401,-14.452362,"country","Senegal","country,political","OK","MadembAS"
11.9415915,79.8083133,"locality","Puducherry, India","locality,political","OK","bonjourpondi"
-33.8688197,151.2092955,"colloquial_area","Sydney NSW, Australia","colloquial_area,locality,political","OK","Schtang"
13.0826802,80.2707184,"locality","Chennai, Tamil Nadu, India","locality,political","OK","Bala_Grandaddy"
28.6139391,77.2090212,"locality","New Delhi, Delhi, India","locality,political","OK","toisports"
52.6368778,-1.1397592,"locality","Leicester, UK","locality,political","OK","johnharoldpinte"
39.1319356,-94.495439,"establishment","1475 N Corrington Ave, Kansas City, MO 64120, USA","establishment,point_of_interest,store","OK","IFPedestrians"
7.873054,80.771797,"country","Sri Lanka","country,political","OK","AskNimesh"
-15.826691,-47.9218204,"administrative_area_level_2","Brasilia - Federal District, Brazil","administrative_area_level_2,political","OK","arnekk"
40.463667,-3.74922,"country","Spain","country,political","OK","BBVA_espana"
37.3890924,-5.9844589,"locality","Seville, Spain","locality,political","OK","JosAntonioFdez7"
48.856614,2.3522219,"locality","Paris, France","locality,political","OK","lobs"
49.817492,15.472962,"country","Czechia","country,political","OK","petra_vackova"
14.716677,-17.4676861,"locality","Dakar, Senegal","locality,political","OK","RogerLAS"
41.3692968,2.137105,"establishment","Carrer de la Constitució, 25, 08014 Barcelona, Spain","establishment,point_of_interest","OK","coopolis_bcn"
19.0759837,72.8776559,"locality","Mumbai, Maharashtra, India","locality,political","OK","drkarekar"
51.5073509,-0.1277583,"locality","London, UK","locality,political","OK","DerrickTate_FM"
46.2043907,6.1431577,"locality","Geneva, Switzerland","locality,political","OK","RitaHYip"
40.6747887,-79.9895022,"locality","Valencia, PA 16059, USA","locality,political","OK","varga_theresa"
4.5350004,-75.6756888,"locality","Armenia, Quindio, Colombia","locality,political","OK","arj_opina"
41.3850639,2.1734035,"locality","Barcelona, Spain","locality,political","OK","Sil_Kieta"
28.9930823,77.0150735,"locality","Sonipat, Haryana, India","locality,political","OK","amit_gulia7020"
24.8607343,67.0011364,"locality","Karachi, Karachi City, Sindh, Pakistan","locality,political","OK","newsonepk"
-24.3570767,19.5687103,"colloquial_area","Southern Africa","colloquial_area,political","OK","WFP_Africa"
40.7348417,-74.0030083,"establishment","62 Charles St, New York, NY 10014, USA","establishment,food,point_of_interest,restaurant","OK","VocesdlMisterio"
50.8503396,4.3517103,"locality","Brussels, Belgium","locality,political","OK","FIACAT_org"
40.598019,-111.583187,"bar","8302 S Brighton Loop Rd, Brighton, UT 84121, USA","bar,establishment,food,lodging,point_of_interest,restaurant,tourist_attraction","OK","AccordanceVAT"
51.5073509,-0.1277583,"locality","London, UK","locality,political","OK","almccrtny"
19.0759837,72.8776559,"locality","Mumbai, Maharashtra, India","locality,political","OK","benny_stephan"
37.3890924,-5.9844589,"locality","Seville, Spain","locality,political","OK","JMGBautista"
15.2993265,74.123996,"administrative_area_level_1","Goa, India","administrative_area_level_1,political","OK","Goaforwardparty"
20.593684,78.96288,"country","India","country,political","OK","AdvindH"
43.653226,-79.3831843,"locality","Toronto, ON, Canada","locality,political","OK","brandymstanford"
40.7634658,-73.9806007,"establishment","151 W 54th St, New York, NY 10019, USA","establishment,lodging,point_of_interest","OK","reactionsnet"
51.5073509,-0.1277583,"locality","London, UK","locality,political","OK","Loan_Tube"
48.856614,2.3522219,"locality","Paris, France","locality,political","OK","FranceNews24"
19.0759837,72.8776559,"locality","Mumbai, Maharashtra, India","locality,political","OK","rebel_pooja"
39.1854572,-119.7901185,"establishment","2201 W College Pkwy, Carson City, NV 89703, USA","establishment,point_of_interest,university","OK","suehuskins"
53.4807593,-2.2426305,"locality","Manchester, UK","locality,political","OK","sharpcharlotte"
6.42375,-66.58973,"country","Venezuela","country,political","OK","sinberwenxa"
40.7177545,-74.0431435,"locality","Jersey City, NJ, USA","locality,political","OK","MiltonJBravo"
13.7563309,100.5017651,"locality","Bangkok, Thailand","locality,political","OK","ThaiPBS"
15.2993265,74.123996,"administrative_area_level_1","Goa, India","administrative_area_level_1,political","OK","johnsondsilva23"
54.0924406,12.0991466,"locality","Rostock, Germany","locality,political","OK","ArndtRolfs"
51.5073509,-0.1277583,"locality","London, UK","locality,political","OK","Dhammikax"
7.2571325,5.2057909,"locality","Akure, Nigeria","locality,political","OK","YoungProPolity"
33.6844202,73.0478848,"locality","Islamabad, Islamabad Capital Territory, Pakistan","locality,political","OK","FAOPakistan"
44.3865457,19.1048105,"locality","Zvornik, Bosnia and Herzegovina","locality,political","OK","ZvornikDanas"
47.5595986,7.5885761,"locality","Basel, Switzerland","locality,political","OK","BIS_org"
3.139003,101.686855,"locality","Kuala Lumpur, Federal Territory of Kuala Lumpur, Malaysia","locality,political","OK","joekaosjr"
51.5073509,-0.1277583,"locality","London, UK","locality,political","OK","cnbcipr"
40.8598637,-72.5678012,"administrative_area_level_3","Southampton, NY, USA","administrative_area_level_3,political","OK","JackridRob"
19.0759837,72.8776559,"locality","Mumbai, Maharashtra, India","locality,political","OK","ShivajiIRTS"
23.885942,45.079162,"country","Saudi Arabia","country,political","OK","Abdullah_coins7"
51.5073509,-0.1277583,"locality","London, UK","locality,political","OK","chrispaps"
41.0082376,28.9783589,"locality","İstanbul, Turkey","locality,political","OK","TRTWorldNow"
41.9027835,12.4963655,"locality","Rome, Metropolitan City of Rome, Italy","locality,political","OK","ItalyMFA"
48.856614,2.3522219,"locality","Paris, France","locality,political","OK","Aboboudial"
52.6638367,-8.6267343,"locality","Limerick, Ireland","locality,political","OK","Glin_B_Boyo"
-23.5505199,-46.6333094,"locality","São Paulo, State of São Paulo, Brazil","locality,political","OK","dgojuan_repol"
18.5204303,73.8567437,"locality","Pune, Maharashtra, India","locality,political","OK","shinils"
52.3555177,-1.1743197,"administrative_area_level_1","England, UK","administrative_area_level_1,political","OK","NICEGetInvolved"
46.227638,2.213749,"country","France","country,political","OK","Allodocteurs"
40.463667,-3.74922,"country","Spain","country,political","OK","BureauVeritasEs"
52.3555177,-1.1743197,"administrative_area_level_1","England, UK","administrative_area_level_1,political","OK","CbdNightingale"
52.3555177,-1.1743197,"administrative_area_level_1","England, UK","administrative_area_level_1,political","OK","chrissimpson81"
20.593684,78.96288,"country","India","country,political","OK","SatyshivS"
28.5383355,-81.3792365,"locality","Orlando, FL, USA","locality,political","OK","SDGTStudio"
17.385044,78.486671,"locality","Hyderabad, Telangana, India","locality,political","OK","AbhishekHCU"
38.978972,-94.856981,"establishment","8225 Hedge Ln Terrace, Shawnee, KS 66227, USA","establishment,point_of_interest","OK","cashiebug"
55.953252,-3.188267,"locality","Edinburgh, UK","locality,political","OK","ComJusScot"
19.0759837,72.8776559,"locality","Mumbai, Maharashtra, India","locality,political","OK","dasra"
41.8902259,12.5065278,"bar","Viale Manzoni, 35, 00185 Roma RM, Italy","bar,establishment,point_of_interest","OK","Aliautonomie"
6.3525108,2.4209538,"embassy","2235 Ave Jean-Paul II, Cotonou, Benin","embassy,establishment,point_of_interest","OK","mewyovo"
1.373333,32.290275,"country","Uganda","country,political","OK","IvanPinno"
11.1271225,78.6568942,"administrative_area_level_1","Tamil Nadu, India","administrative_area_level_1,political","OK","vikatan"
20.593684,78.96288,"country","India","country,political","OK","aajtak"
53.2810955,-6.4345836,"administrative_area_level_2","South Dublin, Co. Dublin, Ireland","administrative_area_level_2,political","OK","sayanamk"
40.4167754,-3.7037902,"locality","Madrid, Spain","locality,political","OK","TribunaMoraleja"
52.486243,-1.890401,"locality","Birmingham, UK","locality,political","OK","jodieannrees"
-1.2920659,36.8219462,"locality","Nairobi, Kenya","locality,political","OK","ADNTV3"
27.1983368,73.7493272,"locality","Nagaur, Rajasthan 341001, India","locality,political","OK","SohanKoli5"
39.9959606,-75.1710217,"establishment","2404 W Lehigh Ave, Philadelphia, PA 19132, USA","establishment,health,point_of_interest","OK","D_MillerThe_Eye"
35.011564,135.7681489,"locality","Kyoto, Japan","locality,political","OK","nariakira967"
41.1197919,1.2447752,"street_address","Plaça de la Imperial Tàrraco, 3, 43005 Tarragona, Spain","street_address","OK","TGNGob"
1.553504,110.3592927,"locality","Kuching, Sarawak, Malaysia","locality,political","OK","JapenSarawak"
22.3038945,70.8021599,"locality","Rajkot, Gujarat, India","locality,political","OK","adatianishit"
37.09024,-95.712891,"country","United States","country,political","OK","freewomen4ever"
45.4408474,12.3155151,"locality","Venice, Metropolitan City of Venice, Italy","locality,political","OK","PresseKraemer"
3.139003,101.686855,"locality","Kuala Lumpur, Federal Territory of Kuala Lumpur, Malaysia","locality,political","OK","enegragroup"
42.850237,-2.6728711,"locality","Vitoria-Gasteiz, Álava, Spain","locality,political","OK","Unibasq"
45.3332482,-122.5728874,"electronics_store","14268 S Maple Ln Ct, Oregon City, OR 97045, USA","electronics_store,establishment,point_of_interest,store","OK","remote_job"
40.8087324,-73.6613652,"establishment","11 Harbor Park Dr, Port Washington, NY 11050, USA","establishment,point_of_interest","OK","PCI360"
36.778261,-119.4179324,"administrative_area_level_1","California, USA","administrative_area_level_1,political","OK","Claromentis"
31.046051,34.851612,"country","Israel","country,political","OK","HeadlineMediaPR"
39.9612065,-4.8299821,"street_address","Calle San Francisco, 21, 45600 Talavera de la Reina, Toledo, Spain","street_address","OK","vozdeltajo"
41.8902259,12.5065278,"bar","Viale Manzoni, 35, 00185 Roma RM, Italy","bar,establishment,point_of_interest","OK","OsservaSocialis"
40.4167754,-3.7037902,"locality","Madrid, Spain","locality,political","OK","jmolerog"
41.3850639,2.1734035,"locality","Barcelona, Spain","locality,political","OK","Fundacio_Surt"
37.09024,-95.712891,"country","United States","country,political","OK","Deeenst"
55.378051,-3.435973,"country","United Kingdom","country,political","OK","HeyGirlsUK"
48.856614,2.3522219,"locality","Paris, France","locality,political","OK","iraiser_eu"
-8.783195,34.508523,"continent","Africa","continent,establishment,natural_feature","OK","Afro_Crypto"
20.593684,78.96288,"country","India","country,political","OK","mlh_tc4a"
19.8967662,-155.5827818,"administrative_area_level_1","Hawaii, USA","administrative_area_level_1,political","OK","El_Deano"
28.6139391,77.2090212,"locality","New Delhi, Delhi, India","locality,political","OK","suprams_info"
28.5355161,77.3910265,"locality","Noida, Uttar Pradesh, India","locality,political","OK","mybrevistay"
53.1423672,-7.6920536,"establishment","Ireland","establishment,natural_feature","OK","cybernoelie"
9.30769,2.315834,"country","Benin","country,political","OK","alododo"
50.8503396,4.3517103,"locality","Brussels, Belgium","locality,political","OK","CHURCHinEU"
51.5073509,-0.1277583,"locality","London, UK","locality,political","OK","AlexKokcharov"
37.2321077,-95.7243335,"establishment","800 N 21st St, Independence, KS 67301, USA","establishment,point_of_interest","OK","COVID_Scale"
20.593684,78.96288,"country","India","country,political","OK","Krithiganarayan"
-40.900557,174.885971,"country","New Zealand","country,political","OK","rprakash08"
29.174841,74.7688173,"locality","Nohar, Rajasthan 335523, India","locality,political","OK","Rv43382"
20.593684,78.96288,"country","India","country,political","OK","Rastogi_07Aditi"
51.165691,10.451526,"country","Germany","country,political","OK","digitalblamage"
52.3555177,-1.1743197,"administrative_area_level_1","England, UK","administrative_area_level_1,political","OK","Care_Charts_UK"
44.016521,21.005859,"country","Serbia","country,political","OK","FaragoAneta"
60.128161,18.643501,"country","Sweden","country,political","OK","SO_36_Matze"
41.4351069,-73.7948516,"administrative_area_level_2","Putnam County, NY, USA","administrative_area_level_2,political","OK","PutnamDV"
48.856614,2.3522219,"locality","Paris, France","locality,political","OK","ClefFemmes"
40.069099,45.038189,"country","Armenia","country,political","OK","NEWSam_English"
36.204824,138.252924,"country","Japan","country,political","OK","sukemomo"
37.09024,-95.712891,"country","United States","country,political","OK","sensiple"
24.3590951,77.9909949,"locality","Kukawali, Madhya Pradesh 473443, India","locality,political","OK","AjaySinghDangi8"
40.463667,-3.74922,"country","Spain","country,political","OK","PactoMundial"
47.3768866,8.541694,"locality","Zürich, Switzerland","locality,political","OK","MoserMaCH"
59.9138688,10.7522454,"locality","Oslo, Norway","locality,political","OK","Neriks1"
-25.274398,133.775136,"country","Australia","country,political","OK","gdayfm"
40.4167754,-3.7037902,"locality","Madrid, Spain","locality,political","OK","a_negociadora"
55.864237,-4.251806,"locality","Glasgow, UK","locality,political","OK","ultracyclist44"
50.7772135,-3.999461,"colloquial_area","South West England, UK","colloquial_area,political","OK","tortoiseneck"
40.4406248,-79.9958864,"locality","Pittsburgh, PA, USA","locality,political","OK","Nancylyn1"
24.8607343,67.0011364,"locality","Karachi, Karachi City, Sindh, Pakistan","locality,political","OK","DawoodTdf"
-25.7495611,28.1886088,"street_address","215 Francis Baard Street, Pretoria Central, Pretoria, 0002, South Africa","street_address","OK","deptoflabour"
36.7429438,-3.5850658,"locality","18680 Salobreña, Granada, Spain","locality,political","OK","Andy2535"
48.379433,31.1655799,"country","Ukraine","country,political","OK","zn_ua"
-25.274398,133.775136,"country","Australia","country,political","OK","MadFckingWitch"
13.0676286,80.2267091,"neighborhood","Metha Nagar, Thiruvalluvar Puram, Aminjikarai, Chennai, Tamil Nadu 600029, India","neighborhood,political","OK","SudharsanSubash"
19.0759837,72.8776559,"locality","Mumbai, Maharashtra, India","locality,political","OK","ganesh_hr"
51.5073509,-0.1277583,"locality","London, UK","locality,political","OK","Minghowriter"
51.5073509,-0.1277583,"locality","London, UK","locality,political","OK","SkyNews"
20.593684,78.96288,"country","India","country,political","OK","newsvoir"
50.8503396,4.3517103,"locality","Brussels, Belgium","locality,political","OK","EPLO_"
-25.274398,133.775136,"country","Australia","country,political","OK","abc730"
30.375321,69.345116,"country","Pakistan","country,political","OK","BaaghiTV"
0.3475964,32.5825197,"locality","Kampala, Uganda","locality,political","OK","reports_spy"
55.378051,-3.435973,"country","United Kingdom","country,political","OK","MutualVentures"
40.4935329,-3.8757916,"locality","Las Rozas de Madrid, Madrid, Spain","locality,political","OK","ArtycoCRM"
28.6139391,77.2090212,"locality","New Delhi, Delhi, India","locality,political","OK","PunjabKesariCom"
28.6139391,77.2090212,"locality","New Delhi, Delhi, India","locality,political","OK","SeutusIndia"
39.399872,-8.224454,"country","Portugal","country,political","OK","actportugal"
21.2513844,81.6296413,"locality","Raipur, Chhattisgarh, India","locality,political","OK","lalluram_news"
23.424076,53.847818,"country","United Arab Emirates","country,political","OK","ForsanHindi"
23.424076,53.847818,"country","United Arab Emirates","country,political","OK","ForsanUrdu"
6.5243793,3.3792057,"locality","Lagos, Nigeria","locality,political","OK","Olami_amoo"
40.7488758,-73.9680091,"establishment","New York, NY 10017, USA","establishment,point_of_interest,tourist_attraction","OK","UNESCO_fr"
54.5259614,15.2551187,"continent","Europe","continent,establishment,natural_feature","OK","PatientView"
48.2081743,16.3738189,"locality","Vienna, Austria","locality,political","OK","RolandLeins"
39.4840108,-0.7532809,"administrative_area_level_1","Valencian Community, Spain","administrative_area_level_1,political","OK","ReformasMislata"
28.6139391,77.2090212,"locality","New Delhi, Delhi, India","locality,political","OK","TheMornStandard"
51.8985143,-8.4756035,"locality","Cork, Ireland","locality,political","OK","corkcitycouncil"
55.378051,-3.435973,"country","United Kingdom","country,political","OK","CreativePEC"
50.978564,-3.2244989,"locality","Wellington TA21, UK","locality,political","OK","WellingtonPrint"
55.378051,-3.435973,"country","United Kingdom","country,political","OK","IntAirport"
-0.023559,37.906193,"country","Kenya","country,political","OK","AlphaRadioKE"
55.6033018,13.1451851,"locality","245 93 Lilla Mölleberga, Sweden","locality,political","OK","LuaniSam"
33.6265932,-78.9544963,"route","N Sand Dune Dr, Myrtle Beach, SC 29588, USA","route","OK","BluegrassTed"
55.378051,-3.435973,"country","United Kingdom","country,political","OK","TruePublica"
9.945587,-9.696645,"country","Guinea","country,political","OK","preventionsgn"
40.463667,-3.74922,"country","Spain","country,political","OK","microBIOblog"
41.5562225,1.8611011,"administrative_area_level_4","Esparreguera, Barcelona, Spain","administrative_area_level_4,political","OK","esparreguera"
41.3850639,2.1734035,"locality","Barcelona, Spain","locality,political","OK","ASCEFcat"
52.4018398,-0.7416706,"establishment","Rothwell Rd, Kettering NN16 8UZ, UK","establishment,health,hospital,point_of_interest","OK","KGHNHSLibrary"
46.2043907,6.1431577,"locality","Geneva, Switzerland","locality,political","OK","IPCC_CH"
48.8499198,2.6370411,"administrative_area_level_1","Île-de-France, France","administrative_area_level_1,political","OK","afao94"
51.2153084,-1.458046,"establishment","Unit 16, Walworth Enterprise Centre, Duke Cl, West Way, Andover SP10 5AP, UK","establishment,point_of_interest","OK","streetvetuk"
52.3555177,-1.1743197,"administrative_area_level_1","England, UK","administrative_area_level_1,political","OK","FuturePlanningW"
52.598233,1.728047,"locality","Great Yarmouth, UK","locality,political","OK","SimpsonsMCC"
51.5073509,-0.1277583,"locality","London, UK","locality,political","OK","Cities_Today"
53.7632254,-2.7044052,"administrative_area_level_2","Lancashire, UK","administrative_area_level_2,political","OK","HoldenAssoc"
12.9715987,77.5945627,"locality","Bengaluru, Karnataka, India","locality,political","OK","minionlabss"
40.463667,-3.74922,"country","Spain","country,political","OK","EY_Spain"
45.4169554,-75.6955812,"premise","355 Cooper St, Ottawa, ON K2P 0G8, Canada","premise","OK","DC_United1"
41.3850639,2.1734035,"locality","Barcelona, Spain","locality,political","OK","iese_esp"
28.6139391,77.2090212,"locality","New Delhi, Delhi, India","locality,political","OK","NH_India"
45.4198818,-75.6951768,"establishment","150 Metcalfe St, Ottawa, ON K2P 1P1, Canada","establishment,point_of_interest","OK","GUENGL"
52.1985936,20.9218621,"establishment","Wylot 5, 02-485 Warszawa, Poland","establishment,point_of_interest","OK","SanofiPolska"
-30.559482,22.937506,"country","South Africa","country,political","OK","GovernmentZA"
45.1,15.2000001,"country","Croatia","country,political","OK","FaktografHR"
39.9041999,116.4073963,"locality","Beijing, China","locality,political","OK","Echinanews"
20.593684,78.96288,"country","India","country,political","OK","weatherindia"
13.7563309,100.5017651,"locality","Bangkok, Thailand","locality,political","OK","prdthailand"
41.8902259,12.5065278,"bar","Viale Manzoni, 35, 00185 Roma RM, Italy","bar,establishment,point_of_interest","OK","IntDissidente"
42.3593227,-71.0548233,"establishment","114 State St, Boston, MA 02109, USA","establishment,point_of_interest","OK","YahooIndia"
41.3850639,2.1734035,"locality","Barcelona, Spain","locality,political","OK","iesebschool"
19.4762521,-99.1364354,"establishment","Av Instituto Politécnico Nacional 4907, Capultitlan, Gustavo A. Madero, 07370 Ciudad de México, CDMX, Mexico","establishment,point_of_interest","OK","Reporte_Indigo"
12.9715987,77.5945627,"locality","Bengaluru, Karnataka, India","locality,political","OK","wilsonreena"
41.3850639,2.1734035,"locality","Barcelona, Spain","locality,political","OK","Mobilitat_AMB"
26.0667,50.5577,"country","Bahrain","country,political","OK","GDNonline"
50.82253,-0.137163,"locality","Brighton, UK","locality,political","OK","SussexWrites"
55.755826,37.6172999,"locality","Moscow, Russia","locality,political","OK","UNIC_Moscow"
40.4167754,-3.7037902,"locality","Madrid, Spain","locality,political","OK","iAgua"
41.5911589,1.5208624,"administrative_area_level_1","Catalonia, Spain","administrative_area_level_1,political","OK","avalotcat"
39.9613759,-105.5108312,"locality","Nederland, CO 80466, USA","locality,political","OK","schoonmkjournal"
51.5073509,-0.1277583,"locality","London, UK","locality,political","OK","JacobDiggle"
18.5204303,73.8567437,"locality","Pune, Maharashtra, India","locality,political","OK","NavaniRajan"
43.610769,3.876716,"locality","Montpellier, France","locality,political","OK","ecom_news"
40.9701039,-5.6635397,"locality","Salamanca, Spain","locality,political","OK","BibliotecaUPSA"
-26.2041028,28.0473051,"locality","Johannesburg, South Africa","locality,political","OK","Bhekisisa_MG"
36.117135,-95.9069109,"establishment","3210 S Norwood Ave # E, Tulsa, OK 74135, USA","establishment,health,home_goods_store,point_of_interest,store","OK","TurnaroundAdvoc"
32.2733352,75.6522066,"locality","Pathankot, Punjab 145001, India","locality,political","OK","navnishbhardwaj"
56.4906712,-4.2026458,"administrative_area_level_1","Scotland, UK","administrative_area_level_1,political","OK","JohnHedges109"
12.9696291,77.6381971,"clothing_store","1096, 12th A Main Road Near Chai Point, B/H Nando's restaurant, Doopanahalli, Indiranagar, Bengaluru, Karnataka 560038, India","clothing_store,establishment,point_of_interest,store","OK","ravfoundation"
48.2081743,16.3738189,"locality","Vienna, Austria","locality,political","OK","Patsch7"
53.0521886,8.6355932,"locality","Delmenhorst, Germany","locality,political","OK","Soundy22021300"
20.593684,78.96288,"country","India","country,political","OK","KaizenInstIndia"
13.0826802,80.2707184,"locality","Chennai, Tamil Nadu, India","locality,political","OK","THChennai"
6.5243793,3.3792057,"locality","Lagos, Nigeria","locality,political","OK","YAN_Lade"
36.834047,-2.4637136,"locality","Almería, Spain","locality,political","OK","VerdiblancaAsc"
37.345317,141.0088172,"locality","Tomioka, Futaba District, Fukushima, Japan","locality,political","OK","looovetinkebell"
21.7140253,81.5356149,"locality","Bemetra, Chhattisgarh 491335, India","locality,political","OK","DharmendraDhu13"
37.09024,-95.712891,"country","United States","country,political","OK","heroesneedmasks"
20.593684,78.96288,"country","India","country,political","OK","htTweets"
39.399872,-8.224454,"country","Portugal","country,political","OK","LusoCanna"
51.5073509,-0.1277583,"locality","London, UK","locality,political","OK","jakesinclair16"
-6.369028,34.888822,"country","Tanzania","country,political","OK","safiri_salama"
37.566535,126.9779692,"locality","Seoul, South Korea","locality,political","OK","TridgeGlobal"
32.7940463,34.989571,"locality","Haifa, Israel","locality,political","OK","memeddx"
3.8480325,11.5020752,"locality","Yaounde, Cameroon","locality,political","OK","SuzanneEko"
-1.2920659,36.8219462,"locality","Nairobi, Kenya","locality,political","OK","felix_asoha"
52.6139686,0.8864021,"administrative_area_level_2","Norfolk, UK","administrative_area_level_2,political","OK","nettieapps"
18.5204303,73.8567437,"locality","Pune, Maharashtra, India","locality,political","OK","Puraairpune"
48.8692624,2.3409723,"establishment","28 Place de la Bourse, 75002 Paris, France","establishment,point_of_interest","OK","financeinnov"
55.378051,-3.435973,"country","United Kingdom","country,political","OK","lizziekgardner1"
28.4089123,77.3177894,"locality","Faridabad, Haryana, India","locality,political","OK","IndiaSecurico"
15.3172775,75.7138884,"administrative_area_level_1","Karnataka, India","administrative_area_level_1,political","OK","i_manishjain"
37.3890924,-5.9844589,"locality","Seville, Spain","locality,political","OK","DACE_INDACE"
53.267064,-6.2372935,"establishment","Blackglen Rd, Sandyford, Dublin, D18 N1F2, Ireland","establishment,museum,point_of_interest,tourist_attraction","OK","melloneducate"
40.463667,-3.74922,"country","Spain","country,political","OK","enfermeriayvacu"
50.8427409,4.3809623,"establishment","Rue de la Loi 175, 1000 Bruxelles, Belgium","establishment,point_of_interest","OK","austrianatheart"
34.0181246,-5.0078451,"locality","Fes, Morocco","locality,political","OK","moroccohyakka"
55.378051,-3.435973,"country","United Kingdom","country,political","OK","PropertyWeek"
50.8503396,4.3517103,"locality","Brussels, Belgium","locality,political","OK","ESA_HQ"
28.6139391,77.2090212,"locality","New Delhi, Delhi, India","locality,political","OK","fssaiindia"
43.23283,-76.1389109,"establishment","9562 Brewerton Rd, Brewerton, NY 13029, USA","establishment,point_of_interest","OK","RightWingQuotes"
53.1423672,-7.6920536,"establishment","Ireland","establishment,natural_feature","OK","PortviewFitOut"
52.3666969,4.8945398,"locality","Amsterdam, Netherlands","locality,political","OK","noledame"
51.5073509,-0.1277583,"locality","London, UK","locality,political","OK","StylistMagazine"
26.9826098,94.6424521,"locality","Sivasagar, Assam, India","locality,political","OK","nanglucky"
40.4167754,-3.7037902,"locality","Madrid, Spain","locality,political","OK","revistaPAP"
19.0759837,72.8776559,"locality","Mumbai, Maharashtra, India","locality,political","OK","moneycontrolcom"
28.5625518,77.2913729,"political","Okhla, New Delhi, Delhi, India","political,sublocality,sublocality_level_1","OK","HareshK04248354"
53.1046782,-1.5623885,"administrative_area_level_2","Derbyshire, UK","administrative_area_level_2,political","OK","derbycollege"
39.2795607,-3.097702,"administrative_area_level_1","Castile-La Mancha, Spain","administrative_area_level_1,political","OK","La_Cerca"
-33.8688197,151.2092955,"colloquial_area","Sydney NSW, Australia","colloquial_area,locality,political","OK","Knotts09"
51.560596,5.0919143,"locality","Tilburg, Netherlands","locality,political","OK","Robinteressant"
53.2854135,-6.3658454,"neighborhood","Tallaght, Dublin, Ireland","neighborhood,political","OK","NewsgroupIRL"
53.7276296,-7.7932573,"locality","Longford, Ireland","locality,political","OK","longfordcoco"
38.7222524,-9.1393366,"locality","Lisbon, Portugal","locality,political","OK","lcarvalhose"
54.597285,-5.93012,"locality","Belfast, UK","locality,political","OK","patman1_2004"
27.5529907,76.6345735,"locality","Alwar, Rajasthan, India","locality,political","OK","Prateek1017"
13.7563309,100.5017651,"locality","Bangkok, Thailand","locality,political","OK","BrandThinkme"
51.5073509,-0.1277583,"locality","London, UK","locality,political","OK","edfitzg"
20.593684,78.96288,"country","India","country,political","OK","Carozhh"
52.5200066,13.404954,"locality","Berlin, Germany","locality,political","OK","ShaikeBer"
17.385044,78.486671,"locality","Hyderabad, Telangana, India","locality,political","OK","BharatBiotech"
45.6415289,39.7055977,"administrative_area_level_1","Krasnodar Krai, Russia","administrative_area_level_1,political","OK","pfr_krasnodar"
41.9027835,12.4963655,"locality","Rome, Metropolitan City of Rome, Italy","locality,political","OK","UN_FAO_GFCM"
31.5203696,74.3587473,"locality","Lahore, Punjab, Pakistan","locality,political","OK","Ahmadsofttech"
-37.8136276,144.9630576,"colloquial_area","Melbourne VIC, Australia","colloquial_area,locality,political","OK","Tessacate"
12.879721,121.774017,"country","Philippines","country,political","OK","ANCALERTS"
27.7076143,41.9196471,"administrative_area_level_1","Hail Province Saudi Arabia","administrative_area_level_1,political","OK","0iig0"
28.6139391,77.2090212,"locality","New Delhi, Delhi, India","locality,political","OK","teriin"
23.022505,72.5713621,"locality","Ahmedabad, Gujarat, India","locality,political","OK","navgujaratsamay"
50.8503396,4.3517103,"locality","Brussels, Belgium","locality,political","OK","VVStudenten"
17.385044,78.486671,"locality","Hyderabad, Telangana, India","locality,political","OK","ACDSHyd"
51.4307467,-0.1294977,"neighborhood","Streatham, London, UK","neighborhood,political","OK","angusramsay"
46.2043907,6.1431577,"locality","Geneva, Switzerland","locality,political","OK","FightTheFakes"
-25.7478676,28.2292712,"locality","Pretoria, South Africa","locality,political","OK","DIRCO_ZA"
54.1751024,-6.34023,"locality","Newry, UK","locality,political","OK","CDHN_NI"
31.3260152,75.5761829,"locality","Jalandhar, Punjab, India","locality,political","OK","UPkesari"
28.6139391,77.2090212,"locality","New Delhi, Delhi, India","locality,political","OK","rajeevforindia"
55.378051,-3.435973,"country","United Kingdom","country,political","OK","Simplex2014"
28.6139391,77.2090212,"locality","New Delhi, Delhi, India","locality,political","OK","nikita_jain15"
37.3890924,-5.9844589,"locality","Seville, Spain","locality,political","OK","Pablofe_sfc"
5.4486412,73.0294589,"establishment","Kinolhas, Maldives","establishment,natural_feature","OK","Kinolhahuschool"
40.4167754,-3.7037902,"locality","Madrid, Spain","locality,political","OK","hospitalbeata"
20.593684,78.96288,"country","India","country,political","OK","NASSCOMStartUps"
-0.789275,113.921327,"country","Indonesia","country,political","OK","indozonemedia"
52.772099,-1.206166,"locality","Loughborough, UK","locality,political","OK","josoaps30"
40.463667,-3.74922,"country","Spain","country,political","OK","wanderqm"
45.6668893,12.2430437,"locality","31100 Treviso, Province of Treviso, Italy","locality,political","OK","Fedcittsovr"
37.0901697,-95.712718,"establishment","Via Roma, 67301 Fawn Creek Township, Montgomery County","establishment,gas_station,point_of_interest","OK","agensir"
26.8502957,80.9480499,"street_address","24, Ashok Marg, Narhi, Hazratganj, Lucknow, Uttar Pradesh 226001, India","street_address","OK","DDUttarPradesh"
51.5073509,-0.1277583,"locality","London, UK","locality,political","OK","ALNAP"
25.8560271,85.7868233,"locality","Samastipur, Bihar 848101, India","locality,political","OK","vivekv_me"
4.1754959,73.5093474,"administrative_area_level_1","Male, Malé, Maldives","administrative_area_level_1,political","OK","samaanslifeDMG"
28.6139391,77.2090212,"locality","New Delhi, Delhi, India","locality,political","OK","flyingsana"
40.4155783,-3.7026244,"establishment","Calle de Barcelona, 4, 28012 Madrid, Spain","establishment,point_of_interest,university","OK","Luxury_Spain"
51.1652199,7.0671161,"locality","Solingen, Germany","locality,political","OK","Gurdur"
-33.8688197,151.2092955,"colloquial_area","Sydney NSW, Australia","colloquial_area,locality,political","OK","bonjourDoran"
52.132633,5.291266,"country","Netherlands","country,political","OK","GuidoMD"
55.378051,-3.435973,"country","United Kingdom","country,political","OK","MEFoggyDog"
19.9974533,73.7898023,"locality","Nashik, Maharashtra, India","locality,political","OK","Amitguj281983"
40.463667,-3.74922,"country","Spain","country,political","OK","ActaSanitaria"
51.5073509,-0.1277583,"locality","London, UK","locality,political","OK","TaitraLondon"
28.9844618,77.7064137,"locality","Meerut, Uttar Pradesh, India","locality,political","OK","AU_MeerutNews"
42.506285,1.521801,"country","Andorra","country,political","OK","diariandorra"
50.937531,6.9602786,"locality","Cologne, Germany","locality,political","OK","VC_watcher"
25.2854473,51.5310398,"locality","Doha, Qatar","locality,political","OK","MIJamjoom"
55.378051,-3.435973,"country","United Kingdom","country,political","OK","BensBookmarks"
37.7749295,-122.4194155,"locality","San Francisco, CA, USA","locality,political","OK","deepbarot"
50.2648919,19.0237815,"locality","Katowice, Poland","locality,political","OK","JWieczorekPL"
54.5259614,15.2551187,"continent","Europe","continent,establishment,natural_feature","OK","mahya_saber"
41.2033216,-77.1945247,"administrative_area_level_1","Pennsylvania, USA","administrative_area_level_1,political","OK","emmasamma2011"
6.6666004,-1.6162709,"locality","Kumasi, Ghana","locality,political","OK","annopogid"
28.6139391,77.2090212,"locality","New Delhi, Delhi, India","locality,political","OK","StudyBerg"
51.535764,-0.902894,"locality","Henley-on-Thames RG9, UK","locality,political","OK","SarahIngeParker"
35.6461371,139.7153917,"political","Ebisu, Shibuya City, Tokyo 150-0013, Japan","political,sublocality,sublocality_level_2","OK","sc0obyd0"
13.5115963,2.1253854,"locality","Niamey, Niger","locality,political","OK","Unicefniger"
-1.2920659,36.8219462,"locality","Nairobi, Kenya","locality,political","OK","a_keysane"
23.5880307,58.3828717,"locality","Muscat, Oman","locality,political","OK","im_mahesh"
51.5073509,-0.1277583,"locality","London, UK","locality,political","OK","LaraCrabb"
48.856614,2.3522219,"locality","Paris, France","locality,political","OK","OhmarieCS"
46.227638,2.213749,"country","France","country,political","OK","epinardscaramel"
51.5073509,-0.1277583,"locality","London, UK","locality,political","OK","Nuffbioethics"
20.593684,78.96288,"country","India","country,political","OK","PratibaRaman"
61.92411,25.7481511,"country","Finland","country,political","OK","EDUFI_HigherEd"
34.0522342,-118.2436849,"locality","Los Angeles, CA, USA","locality,political","OK","tanyagiang"
51.165691,10.451526,"country","Germany","country,political","OK","NerdyGerdyMan"
20.593684,78.96288,"country","India","country,political","OK","newsbluntmedia"
-6.2087634,106.845599,"colloquial_area","Jakarta, Indonesia","colloquial_area,locality,political","OK","mnctrijaya"
20.2995985,85.8259579,"establishment","IMMT, Sachivalaya Marg, RRL Campus, Acharya Vihar, Bhubaneswar, Odisha 751013, India","establishment,point_of_interest","OK","SBasuIITD"
13.7563309,100.5017651,"locality","Bangkok, Thailand","locality,political","OK","yurdi_yasmi"
21.4735329,55.975413,"country","Oman","country,political","OK","abdallahelchami"
45.4642035,9.189982,"locality","Milan, Metropolitan City of Milan, Italy","locality,political","OK","simonavalentini"
52.4750743,-1.829833,"administrative_area_level_2","West Midlands, UK","administrative_area_level_2,political","OK","rfctabs"
25.5940947,85.1375645,"locality","Patna, Bihar, India","locality,political","OK","NeerajK59414574"
51.5073509,-0.1277583,"locality","London, UK","locality,political","OK","JLPhysio_"
33.3431395,-118.3253052,"establishment","513 Crescent Ave, Avalon, CA 90704, USA","establishment,point_of_interest,university","OK","ValentiniBack"
51.5073509,-0.1277583,"locality","London, UK","locality,political","OK","claudiacustodi0"
28.6139391,77.2090212,"locality","New Delhi, Delhi, India","locality,political","OK","_Anshu_babu_"
20.593684,78.96288,"country","India","country,political","OK","DeccanHerald"
48.8930019,2.3167206,"establishment","3 Rue Boulay, 75017 Paris, France","establishment,lodging,point_of_interest","OK","asseh"
52.5694985,-0.2405299,"locality","Peterborough, UK","locality,political","OK","stephenmann"
46.2475706,5.1307681,"administrative_area_level_2","Ain, France","administrative_area_level_2,political","OK","zazafox01"
19.0759837,72.8776559,"locality","Mumbai, Maharashtra, India","locality,political","OK","aiai_india"
20.593684,78.96288,"country","India","country,political","OK","TheWeekLive"
25.354826,51.183884,"country","Qatar","country,political","OK","qatarliving"
39.9629406,-75.163389,"clothing_store","1509 Spring Garden St, Philadelphia, PA 19130, USA","clothing_store,establishment,point_of_interest,store","OK","CBMItaliaOnlus"
51.933333,-4.1,"political","Carmarthen East and Dinefwr, Carmarthen SA32 7UA, UK","political","OK","Adamprice"
23.9924669,85.3636758,"locality","Hazaribagh, Jharkhand, India","locality,political","OK","RiteshK16515695"
48.2081743,16.3738189,"locality","Vienna, Austria","locality,political","OK","APA_Science"
28.6139391,77.2090212,"locality","New Delhi, Delhi, India","locality,political","OK","OfficeOfRSP"
19.0759837,72.8776559,"locality","Mumbai, Maharashtra, India","locality,political","OK","RealMasand"
51.5073509,-0.1277583,"locality","London, UK","locality,political","OK","TheSouthernAfr3"
50.25,6.6666667,"establishment","Eifel, 54568 Gerolstein, Germany","establishment,natural_feature","OK","henriette_nette"
37.5442706,-4.7277528,"administrative_area_level_1","Andalusia, Spain","administrative_area_level_1,political","OK","ccooandalucia"
51.5886121,0.0823982,"administrative_area_level_3","London Borough of Redbridge, UK","administrative_area_level_3,political","OK","RedbridgeLive"
28.0168584,79.1389341,"establishment","Shastri Nagar, Budaun, Uttar Pradesh 243601, India","establishment,local_government_office,point_of_interest","OK","budaunpolice"
40.2731911,-76.8867008,"locality","Harrisburg, PA, USA","locality,political","OK","ladydeath413"
40.8087324,-73.6613652,"establishment","11 Harbor Park Dr, Port Washington, NY 11050, USA","establishment,point_of_interest","OK","MicroFocusSec"
-30.559482,22.937506,"country","South Africa","country,political","OK","kgwashipe"
10.0635758,-67.2847875,"administrative_area_level_1","Aragua, Venezuela","administrative_area_level_1,political","OK","CorpoelecAragu2"
40.7127753,-74.0059728,"locality","New York, NY, USA","locality,political","OK","unicefprotects"
52.205337,0.121817,"locality","Cambridge, UK","locality,political","OK","CambioLtd"
20.593684,78.96288,"country","India","country,political","OK","bsindia"
37.0179538,-7.930834,"administrative_area_level_1","Faro District, Portugal","administrative_area_level_1,political","OK","sulinformacao"
28.6109489,77.2150986,"premise","Nirman Bhawan, Rajpath Area, Central Secretariat, New Delhi, Delhi 110001, India","premise","OK","MoHFW_INDIA"
6.5243793,3.3792057,"locality","Lagos, Nigeria","locality,political","OK","JobbaMandy"
29.4501986,77.3172046,"locality","Shamli, Uttar Pradesh 247776, India","locality,political","OK","RahulDevGupta_1"
55.378051,-3.435973,"country","United Kingdom","country,political","OK","Phagenesis"
37.09024,-95.712891,"country","United States","country,political","OK","TalkingImagery"
40.4167754,-3.7037902,"locality","Madrid, Spain","locality,political","OK","LatinReporters"
43.3613953,-5.8593267,"administrative_area_level_1","Asturias, Spain","administrative_area_level_1,political","OK","PLJK1984"
50.2648919,19.0237815,"locality","Katowice, Poland","locality,political","OK","SlaskiUW"
26.2171906,50.1971381,"locality","Al Khobar Saudi Arabia","locality,political","OK","JIHADMAHMOOD"
-14.235004,-51.92528,"country","Brazil","country,political","OK","todeferias"
25.5940947,85.1375645,"locality","Patna, Bihar, India","locality,political","OK","PAGCfoundation"
53.795984,-1.759398,"locality","Bradford, UK","locality,political","OK","docjohnwright"
31.1048294,77.1733901,"administrative_area_level_1","Himachal Pradesh, India","administrative_area_level_1,political","OK","FirstVerdict"
17.385044,78.486671,"locality","Hyderabad, Telangana, India","locality,political","OK","Balakrishna096"
51.632861,-1.710398,"locality","Highworth, Swindon SN6, UK","locality,political","OK","OSteinmetz25"
51.600774,-3.342314,"locality","Pontypridd, UK","locality,political","OK","AlexDaviesJones"
32.917193,72.4080605,"locality","Talagang, Chakwal, Punjab, Pakistan","locality,political","OK","itsrizwanshah"
42.4298846,-8.6446202,"locality","Pontevedra, Spain","locality,political","OK","depo_es"
50.503887,4.469936,"country","Belgium","country,political","OK","maxialon"
51.5073509,-0.1277583,"locality","London, UK","locality,political","OK","JudithKerem"
-1.2920659,36.8219462,"locality","Nairobi, Kenya","locality,political","OK","CGIARgender"
53.3498053,-6.2603097,"locality","Dublin, Ireland","locality,political","OK","TCDPharmacy"
20.593684,78.96288,"country","India","country,political","OK","ABPNews"
42.8534316,-71.2106013,"establishment","16 NH-111 building 2 suite 5, Derry, NH 03038, USA","establishment,health,point_of_interest,store","OK","ethelred007"
-6.792354,39.2083284,"locality","Dar es Salaam, Tanzania","locality,political","OK","KokaAbel"
41.3850639,2.1734035,"locality","Barcelona, Spain","locality,political","OK","ISGLOBALorg"
51.8642449,-2.238156,"locality","Gloucester, UK","locality,political","OK","eBug_UK"
37.09024,-95.712891,"country","United States","country,political","OK","smartdissent"
48.856614,2.3522219,"locality","Paris, France","locality,political","OK","LettreContinent"
53.2326344,-2.6103158,"colloquial_area","Cheshire, UK","colloquial_area,political","OK","C_C_A"
54.0924406,12.0991466,"locality","Rostock, Germany","locality,political","OK","Centogene"
-40.900557,174.885971,"country","New Zealand","country,political","OK","steffclarke"
20.593684,78.96288,"country","India","country,political","OK","CovidIndiaSeva"
48.8798704,0.1712529,"administrative_area_level_1","Normandy, France","administrative_area_level_1,political","OK","Valentin_Drnl"
55.864237,-4.251806,"locality","Glasgow, UK","locality,political","OK","GetCakedGlasgow"
42.6629138,21.1655028,"locality","Pristina","locality,political","OK","USEmbPristina"
-3.373056,29.918886,"country","Burundi","country,political","OK","ABPInfos"
-30.559482,22.937506,"country","South Africa","country,political","OK","SABCNews"
13.0826802,80.2707184,"locality","Chennai, Tamil Nadu, India","locality,political","OK","PTTVOnlineNews"
49.815273,6.129583,"country","Luxembourg","country,political","OK","sante_lu"
52.3555177,-1.1743197,"administrative_area_level_1","England, UK","administrative_area_level_1,political","OK","tto_gb"
-17.8251657,31.03351,"locality","Harare, Zimbabwe","locality,political","OK","zanupf_patriots"
18.5204303,73.8567437,"locality","Pune, Maharashtra, India","locality,political","OK","mitikerang"
-37.8136276,144.9630576,"colloquial_area","Melbourne VIC, Australia","colloquial_area,locality,political","OK","designani"
51.1278758,1.3134027,"locality","Dover, UK","locality,political","OK","joshuahowelll"
7.946527,-1.023194,"country","Ghana","country,political","OK","globe_paces"
12.9715987,77.5945627,"locality","Bengaluru, Karnataka, India","locality,political","OK","Dynamoinfotech1"
51.5073509,-0.1277583,"locality","London, UK","locality,political","OK","IngenuityDigi"
32.8381639,-117.2785878,"car_dealer","7440 La Jolla Blvd, La Jolla, CA 92037, USA","car_dealer,establishment,point_of_interest,store","OK","Danis94915605"
12.879721,121.774017,"country","Philippines","country,political","OK","snippetmedia"
33.8937913,35.5017767,"locality","Beirut, Lebanon","locality,political","OK","EUinLebanon"
55.378051,-3.435973,"country","United Kingdom","country,political","OK","Ian56789"
52.0704978,4.3006999,"locality","The Hague, Netherlands","locality,political","OK","hivos"
38.963745,35.243322,"country","Turkey","country,political","OK","ConnectBlackSea"
-11.6876026,27.5026174,"locality","Lubumbashi, Democratic Republic of the Congo","locality,political","OK","ambadrien"
34.0522342,-118.2436849,"locality","Los Angeles, CA, USA","locality,political","OK","Russell_Arch"
13.0826802,80.2707184,"locality","Chennai, Tamil Nadu, India","locality,political","OK","thandoratimes"
28.6139391,77.2090212,"locality","New Delhi, Delhi, India","locality,political","OK","GeraMudit"
-20.9175738,142.7027956,"administrative_area_level_1","Queensland, Australia","administrative_area_level_1,political","OK","GlobalNewsAUS"
37.5442706,-4.7277528,"administrative_area_level_1","Andalusia, Spain","administrative_area_level_1,political","OK","skakeofanzine"
11.664325,78.1460142,"locality","Salem, Tamil Nadu, India","locality,political","OK","sonaartscollege"
12.9715987,77.5945627,"locality","Bengaluru, Karnataka, India","locality,political","OK","tax_scan"
51.5073509,-0.1277583,"locality","London, UK","locality,political","OK","_aziemann"
40.7348417,-74.0030083,"establishment","62 Charles St, New York, NY 10014, USA","establishment,food,point_of_interest,restaurant","OK","Autoforma"
9.0764785,7.398574,"locality","Abuja, Nigeria","locality,political","OK","JoshuaBalogun17"
3.1278871,101.5944885,"locality","Petaling Jaya, Selangor, Malaysia","locality,political","OK","theSundaily"
41.3275459,19.8186982,"locality","Tirana, Albania","locality,political","OK","ShendetesiaAL"
5.3599517,-4.0082563,"locality","Abidjan, Côte d'Ivoire","locality,political","OK","patcriolo"
38.8756313,-77.006195,"cafe","1239 First St SE, Washington, DC 20003, USA","cafe,clothing_store,establishment,food,point_of_interest,shoe_store,store","OK","anilscribe"
50.8451877,4.3531822,"establishment","Rue des Eperonniers 63, 1000 Bruxelles, Belgium","establishment,point_of_interest,spa","OK","COCIR"
53.1423672,-7.6920536,"establishment","Ireland","establishment,natural_feature","OK","thepainterflynn"
31.791702,-7.09262,"country","Morocco","country,political","OK","barlamanefr"
53.3498053,-6.2603097,"locality","Dublin, Ireland","locality,political","OK","ITAATweets"
25.0960742,85.3131194,"administrative_area_level_1","Bihar, India","administrative_area_level_1,political","OK","Avanish20358520"
51.8072204,-0.8127664,"colloquial_area","Buckinghamshire, UK","colloquial_area,political","OK","GillyBryant"
26.9124336,75.7872709,"locality","Jaipur, Rajasthan, India","locality,political","OK","partani_clinic"
1.352083,103.819836,"country","Singapore","country,political","OK","drkristenkc"
23.684994,90.356331,"country","Bangladesh","country,political","OK","IOMBangladesh"
51.5073509,-0.1277583,"locality","London, UK","locality,political","OK","angelneptustar"
52.205337,0.121817,"locality","Cambridge, UK","locality,political","OK","NewtonInstitute"
20.593684,78.96288,"country","India","country,political","OK","MirrorNow"
51.5073509,-0.1277583,"locality","London, UK","locality,political","OK","TheLancetInfDis"
19.0759837,72.8776559,"locality","Mumbai, Maharashtra, India","locality,political","OK","ImpactGuru"
27.0238036,74.2179326,"administrative_area_level_1","Rajasthan, India","administrative_area_level_1,political","OK","Myteam11T"
20.593684,78.96288,"country","India","country,political","OK","priyathamKING"
36.7282054,-76.5835621,"locality","Suffolk, VA, USA","locality,political","OK","MidSuffolk"
28.6139391,77.2090212,"locality","New Delhi, Delhi, India","locality,political","OK","matthewthedj"
51.4536672,3.5709125,"locality","Vlissingen, Netherlands","locality,political","OK","HunterDeuling"
50.2648919,19.0237815,"locality","Katowice, Poland","locality,political","OK","BiuroPrasowePGG"
20.462521,85.8829895,"locality","Cuttack, Odisha, India","locality,political","OK","theamulyajeevan"
-37.8136276,144.9630576,"colloquial_area","Melbourne VIC, Australia","colloquial_area,locality,political","OK","emm_downunder"
28.4594965,77.0266383,"locality","Gurugram, Haryana, India","locality,political","OK","DCJainRealEstat"
46.227638,2.213749,"country","France","country,political","OK","jobmania"
11.4751901,77.2882833,"locality","Kallipatti, Tamil Nadu 638503, India","locality,political","OK","siva9595"
20.593684,78.96288,"country","India","country,political","OK","UrmiJo1203"
51.5073509,-0.1277583,"locality","London, UK","locality,political","OK","criticalcareuk"
20.2960587,85.8245398,"locality","Bhubaneswar, Odisha, India","locality,political","OK","YuvaSamay"
51.8097823,-0.2376744,"administrative_area_level_2","Hertfordshire, UK","administrative_area_level_2,political","OK","18bythree"
40.5589672,-3.6261976,"locality","San Sebastián de los Reyes, Madrid, Spain","locality,political","OK","teacherMariolg"
22.7195687,75.8577258,"locality","Indore, Madhya Pradesh, India","locality,political","OK","evendigit"
-26.2707593,28.1122679,"administrative_area_level_1","Gauteng, South Africa","administrative_area_level_1,political","OK","Fistaz_T"
21.916221,95.955974,"country","Myanmar (Burma)","country,political","OK","MariePegieCau"
8.9806034,38.7577605,"locality","Addis Ababa, Ethiopia","locality,political","OK","YouhanesMagok"
-6.2087634,106.845599,"colloquial_area","Jakarta, Indonesia","colloquial_area,locality,political","OK","JaktvCom"
48.856614,2.3522219,"locality","Paris, France","locality,political","OK","VinceJarousseau"
41.3850639,2.1734035,"locality","Barcelona, Spain","locality,political","OK","FondoCalala"
52.6368778,-1.1397592,"locality","Leicester, UK","locality,political","OK","BPSOfficial"
52.3555177,-1.1743197,"administrative_area_level_1","England, UK","administrative_area_level_1,political","OK","Chazile101"
6.576421,3.365344,"political","Maryland, Lagos, Nigeria","political,sublocality,sublocality_level_1","OK","RasaqFeranmi"
50.8503396,4.3517103,"locality","Brussels, Belgium","locality,political","OK","EUpassengers"
52.3555177,-1.1743197,"administrative_area_level_1","England, UK","administrative_area_level_1,political","OK","samcro1882"
-8.783195,34.508523,"continent","Africa","continent,establishment,natural_feature","OK","LNTribune"
12.9715987,77.5945627,"locality","Bengaluru, Karnataka, India","locality,political","OK","OneindiaKannada"
53.9915028,-1.5412015,"administrative_area_level_2","North Yorkshire, UK","administrative_area_level_2,political","OK","EfficiencyPlus"
30.3419866,-97.676541,"establishment","8609 Cross Park Dr, Austin, TX 78754, USA","establishment,point_of_interest","OK","ReliefIntl"
0.3475964,32.5825197,"locality","Kampala, Uganda","locality,political","OK","WakoJoel"
18.5204303,73.8567437,"locality","Pune, Maharashtra, India","locality,political","OK","Skg2011Pk"
39.4937392,-6.0679194,"administrative_area_level_1","Extremadura, Spain","administrative_area_level_1,political","OK","CooperativasExt"
55.378051,-3.435973,"country","United Kingdom","country,political","OK","seltek"
48.8499198,2.6370411,"administrative_area_level_1","Île-de-France, France","administrative_area_level_1,political","OK","__Verlaine__"
49.4874592,8.4660395,"locality","Mannheim, Germany","locality,political","OK","ESomitsch"
50.8164064,4.4265181,"locality","Auderghem, Belgium","locality,political","OK","DNewtonC"
24.453884,54.3773438,"locality","Abu Dhabi - United Arab Emirates","locality,political","OK","UrjaaKumar"
48.856614,2.3522219,"locality","Paris, France","locality,political","OK","ulyssepariser"
32.7766642,-96.7969879,"locality","Dallas, TX, USA","locality,political","OK","AustinKellerman"
51.481581,-3.17909,"locality","Cardiff, UK","locality,political","OK","FSB_Wales"
36.7282054,-76.5835621,"locality","Suffolk, VA, USA","locality,political","OK","BaberghDistrict"
-0.023559,37.906193,"country","Kenya","country,political","OK","KenGenKenya"
23.424076,53.847818,"country","United Arab Emirates","country,political","OK","gulf_news"
15.2993265,74.123996,"administrative_area_level_1","Goa, India","administrative_area_level_1,political","OK","anurag__kaushik"
42.8536043,13.5749442,"locality","63100 Ascoli Piceno, Province of Ascoli Piceno, Italy","locality,political","OK","PicenoTime"
40.4167754,-3.7037902,"locality","Madrid, Spain","locality,political","OK","MAECgob"
56.394994,-3.4308381,"locality","Perth, UK","locality,political","OK","OxfamPerth"
56.162939,10.203921,"locality","Aarhus, Denmark","locality,political","OK","padkaer"
52.5200066,13.404954,"locality","Berlin, Germany","locality,political","OK","IntlPeaceBureau"
-31.9505269,115.8604572,"colloquial_area","Perth WA, Australia","colloquial_area,locality,political","OK","johnsolvander"
59.3293235,18.0685808,"locality","Stockholm, Sweden","locality,political","OK","UNDP_Sweden"
48.8499198,2.6370411,"administrative_area_level_1","Île-de-France, France","administrative_area_level_1,political","OK","Fr_Assos_Sante"
14.5995124,120.9842195,"locality","Manila, Metro Manila, Philippines","locality,political","OK","ABSCBNNews"
51.4816337,-1.14095,"locality","Upper Basildon, Reading RG8, UK","locality,political","OK","JimboCharlieAsh"
30.3164945,78.0321918,"locality","Dehradun, Uttarakhand, India","locality,political","OK","shrivastavaojas"
-30.559482,22.937506,"country","South Africa","country,political","OK","EstateAgentSA"
19.0759837,72.8776559,"locality","Mumbai, Maharashtra, India","locality,political","OK","ITLNLive"
37.5442706,-4.7277528,"administrative_area_level_1","Andalusia, Spain","administrative_area_level_1,political","OK","AplausoSanidad"
22.3193039,114.1693611,"country","Hong Kong","country,political","OK","Choypw"
23.810332,90.4125181,"locality","Dhaka, Bangladesh","locality,political","OK","tanvir_a_ratul"
53.4807593,-2.2426305,"locality","Manchester, UK","locality,political","OK","SkipHireMag"
-37.8136276,144.9630576,"colloquial_area","Melbourne VIC, Australia","colloquial_area,locality,political","OK","PeceKocovski"
-4.5585849,105.4068079,"administrative_area_level_1","Lampung, Indonesia","administrative_area_level_1,political","OK","lampostco"
52.2296756,21.0122287,"locality","Warsaw, Poland","locality,political","OK","ZdrowieM"
27.1543104,84.3542049,"administrative_area_level_2","Pashchim Champaran, Bihar, India","administrative_area_level_2,political","OK","ashishrai29"
56.450572,27.2653559,"locality","Balbiši, Ozolaine Parish, LV-4633, Latvia","locality,political","OK","ozolaine"
40.3572976,-74.6672226,"locality","Princeton, NJ, USA","locality,political","OK","HOCRadio"
51.5073509,-0.1277583,"locality","London, UK","locality,political","OK","QuentinCasares"
41.87194,12.56738,"country","Italy","country,political","OK","AMOREGRANDEE"
55.378051,-3.435973,"country","United Kingdom","country,political","OK","RAEng_Hub"
51.5073509,-0.1277583,"locality","London, UK","locality,political","OK","Ehab__Foda"
40.463667,-3.74922,"country","Spain","country,political","OK","CGT"
40.750426,-73.9691368,"establishment","1 United Nations Plaza, New York, NY 10017, USA","establishment,point_of_interest","OK","pnudfr"
40.8127799,-73.944277,"establishment","156 W 132nd St, New York, NY 10027, USA","establishment,lodging,point_of_interest","OK","Vice_Park"
56.4906712,-4.2026458,"administrative_area_level_1","Scotland, UK","administrative_area_level_1,political","OK","saltiredogs"
52.6308859,1.297355,"locality","Norwich, UK","locality,political","OK","telatin"
31.9539494,35.910635,"locality","Amman, Jordan","locality,political","OK","IsmailAdvice"
13.7563309,100.5017651,"locality","Bangkok, Thailand","locality,political","OK","ThaiNewsPix"
9.081999,8.675277,"country","Nigeria","country,political","OK","LagoonHospitals"
55.6760968,12.5683372,"locality","Copenhagen, Denmark","locality,political","OK","LynnRoseberry"
23.3440997,85.309562,"locality","Ranchi, Jharkhand, India","locality,political","OK","rnuddkranchi"
41.0082376,28.9783589,"locality","İstanbul, Turkey","locality,political","OK","istegucumuz"
52.5200066,13.404954,"locality","Berlin, Germany","locality,political","OK","unrealMerkel"
10.8505159,76.2710833,"administrative_area_level_1","Kerala, India","administrative_area_level_1,political","OK","BrilliantPala"
52.5300766,13.4145683,"establishment","Saarbrücker Str. 26, 10405 Berlin, Germany","establishment,gym,health,point_of_interest","OK","chidambara09"
-31.9505269,115.8604572,"colloquial_area","Perth WA, Australia","colloquial_area,locality,political","OK","lotus2955"
26.0667,50.5577,"country","Bahrain","country,political","OK","Bhnews_eng"
38.7222524,-9.1393366,"locality","Lisbon, Portugal","locality,political","OK","damiagrouppt"
40.4167754,-3.7037902,"locality","Madrid, Spain","locality,political","OK","Apoyopositivo"
29.7604267,-95.3698028,"locality","Houston, TX, USA","locality,political","OK","OncoPower"
40.463667,-3.74922,"country","Spain","country,political","OK","Solera_Spain"
41.1536674,-81.3578859,"locality","Kent, OH, USA","locality,political","OK","laurenjean23"
29.2985278,42.5509603,"colloquial_area","Middle East","colloquial_area,political","OK","WFP_MENA"
34.7464809,-92.2895948,"locality","Little Rock, AR, USA","locality,political","OK","muller10"
36.8121041,34.6414811,"locality","Mersin, Akdeniz/Mersin, Turkey","locality,political","OK","beyzaozhannn"
42.4725554,-122.8143455,"establishment","151 W Linn Rd # C3, Eagle Point, OR 97524, USA","establishment,home_goods_store,point_of_interest,store","OK","dozykraut"
13.0826802,80.2707184,"locality","Chennai, Tamil Nadu, India","locality,political","OK","TamilTheHindu"
51.5188884,-0.1439307,"premise","Broadcasting House, Portland Pl, Marylebone, London W1A 1AA, UK","premise","OK","BBCRadioLondon"
23.3440997,85.309562,"locality","Ranchi, Jharkhand, India","locality,political","OK","utsavraj2214"
51.7520209,-1.2577263,"locality","Oxford, UK","locality,political","OK","linda_covill"
42.2870733,-2.539603,"administrative_area_level_1","La Rioja, Spain","administrative_area_level_1,political","OK","mariaytodos"
30.3164945,78.0321918,"locality","Dehradun, Uttarakhand, India","locality,political","OK","HITDoonOfficial"
-8.783195,34.508523,"continent","Africa","continent,establishment,natural_feature","OK","Gwabvus"
39.8628316,-4.0273231,"locality","Toledo, Spain","locality,political","OK","CoronavirusSpa1"
48.3050874,-0.6185636,"administrative_area_level_2","Mayenne, France","administrative_area_level_2,political","OK","Equinoki"
53.3498053,-6.2603097,"locality","Dublin, Ireland","locality,political","OK","suzy661"
43.6028079,39.7341543,"locality","Sochi, Krasnodar Krai, Russia","locality,political","OK","kisnowandsea"
51.5073509,-0.1277583,"locality","London, UK","locality,political","OK","tweetheart4711"
36.2638364,-95.8546755,"establishment","201 S Main St, Owasso, OK 74055, USA","establishment,food,point_of_interest,restaurant","OK","GSocialesMadrid"
52.931448,1.301866,"locality","Cromer, UK","locality,political","OK","NNUH"
51.5073509,-0.1277583,"locality","London, UK","locality,political","OK","SylvanaStorey"
41.6528052,-83.5378674,"locality","Toledo, OH, USA","locality,political","OK","JSmith13ABC"
55.953252,-3.188267,"locality","Edinburgh, UK","locality,political","OK","SDinPraxis"
20.593684,78.96288,"country","India","country,political","OK","IndiaToday"
20.593684,78.96288,"country","India","country,political","OK","c3_india"
31.791702,-7.09262,"country","Morocco","country,political","OK","hespress"
40.4167754,-3.7037902,"locality","Madrid, Spain","locality,political","OK","Farmaceuticos_"
47.3768866,8.541694,"locality","Zürich, Switzerland","locality,political","OK","FrankWHerold"
11.0168445,76.9558321,"locality","Coimbatore, Tamil Nadu, India","locality,political","OK","mayamadhava"
14.497401,-14.452362,"country","Senegal","country,political","OK","johnuniackdavis"
30.2849185,-97.7340567,"establishment","Austin, TX 78712, USA","establishment,point_of_interest,university","OK","sarahjanepreece"
16.5061743,80.6480153,"locality","Vijayawada, Andhra Pradesh, India","locality,political","OK","RameshHospitals"
30.7046486,76.7178726,"locality","Sahibzada Ajit Singh Nagar, Punjab, India","locality,political","OK","softuvo"
23.022505,72.5713621,"locality","Ahmedabad, Gujarat, India","locality,political","OK","RydotL"
48.856614,2.3522219,"locality","Paris, France","locality,political","OK","framychristian"
40.463667,-3.74922,"country","Spain","country,political","OK","CIBERES"
28.6139391,77.2090212,"locality","New Delhi, Delhi, India","locality,political","OK","prafullaketkar"
51.5073509,-0.1277583,"locality","London, UK","locality,political","OK","KingsCollegeLon"
40.4167754,-3.7037902,"locality","Madrid, Spain","locality,political","OK","Gacetinmadrid"
40.463667,-3.74922,"country","Spain","country,political","OK","LauteConsulting"
9.081999,8.675277,"country","Nigeria","country,political","OK","MRKELVINFIXED"
53.328,-2.229409,"locality","Wilmslow SK9, UK","locality,political","OK","employmentlaw77"
17.385044,78.486671,"locality","Hyderabad, Telangana, India","locality,political","OK","Asrithas_Group"
40.4167754,-3.7037902,"locality","Madrid, Spain","locality,political","OK","Feelcapital"
41.5976275,-0.9056623,"administrative_area_level_1","Aragon, Spain","administrative_area_level_1,political","OK","FundacionDFA"
56.4906712,-4.2026458,"administrative_area_level_1","Scotland, UK","administrative_area_level_1,political","OK","wj63w"
56.130366,-106.346771,"country","Canada","country,political","OK","coloncanada"
51.3491996,-1.9927105,"administrative_area_level_2","Wiltshire, UK","administrative_area_level_2,political","OK","JuliePalmer999"
52.3555177,-1.1743197,"administrative_area_level_1","England, UK","administrative_area_level_1,political","OK","MarkAnt72"
54.597285,-5.93012,"locality","Belfast, UK","locality,political","OK","SEUPB"
1.553504,110.3592927,"locality","Kuching, Sarawak, Malaysia","locality,political","OK","CATSFM993"
40.7127753,-74.0059728,"locality","New York, NY, USA","locality,political","OK","globalcompact"
51.5073509,-0.1277583,"locality","London, UK","locality,political","OK","greggerstg"
9.0764785,7.398574,"locality","Abuja, Nigeria","locality,political","OK","UtohPaul"
23.634501,-102.552784,"country","Mexico","country,political","OK","politicomx"
40.4167754,-3.7037902,"locality","Madrid, Spain","locality,political","OK","GrupoAseguranza"
25.0329694,121.5654177,"colloquial_area","Taipei, Taiwan","colloquial_area,locality,political","OK","TW_nextmedia"
20.593684,78.96288,"country","India","country,political","OK","orfonline"
41.1224394,25.4065582,"locality","Komotini 691 00, Greece","locality,political","OK","Paratiritis_Thr"
13.0826802,80.2707184,"locality","Chennai, Tamil Nadu, India","locality,political","OK","the_hindu"
39.9625984,-76.727745,"locality","York, PA, USA","locality,political","OK","YorkPrint"
28.9844618,77.7064137,"locality","Meerut, Uttar Pradesh, India","locality,political","OK","janwani_dainik"
-22.8440802,-43.3094623,"political","Vila da Penha, Rio de Janeiro - State of Rio de Janeiro, Brazil","political,sublocality,sublocality_level_1","OK","barbervillarj"
50.0782184,8.2397608,"locality","Wiesbaden, Germany","locality,political","OK","dgimev"
30.3419866,-97.676541,"establishment","8609 Cross Park Dr, Austin, TX 78754, USA","establishment,point_of_interest","OK","travel1002"
41.0997803,-80.6495194,"locality","Youngstown, OH, USA","locality,political","OK","TedTurner100"
48.856614,2.3522219,"locality","Paris, France","locality,political","OK","biswajithvk"
37.7749295,-122.4194155,"locality","San Francisco, CA, USA","locality,political","OK","mf_smith"
30.4514677,-91.1871466,"locality","Baton Rouge, LA, USA","locality,political","OK","mcpopg"
-26.2607243,28.4630376,"locality","Springs, South Africa","locality,political","OK","Siya_Maloka_"
38.8501078,-77.0391754,"postal_code","Arlington, VA 22202, USA","postal_code","OK","PORTWONSAN"
53.2810955,-6.4345836,"administrative_area_level_2","South Dublin, Co. Dublin, Ireland","administrative_area_level_2,political","OK","BabyAcademyIre"
51.389646,1.3868339,"locality","Margate, UK","locality,political","OK","LinternArt"
-1.2920659,36.8219462,"locality","Nairobi, Kenya","locality,political","OK","Ali_Manzu"
51.5073509,-0.1277583,"locality","London, UK","locality,political","OK","securitysplat"
39.4699075,-0.3762881,"locality","Valencia, Spain","locality,political","OK","policialocalvlc"
25.2214162,84.2639954,"locality","Bikramganj, Bihar 802212, India","locality,political","OK","bhisham_pitamah"
28.6229006,76.7420039,"route","Jhajjar - Bahadurgarh Rd, Kablana, Haryana, India","route","OK","gitamofficial"
34.7071301,33.0226174,"locality","Limassol, Cyprus","locality,political","OK","XM_COM"
51.9244201,4.4777326,"locality","Rotterdam, Netherlands","locality,political","OK","esrinederland"
54.5704551,-1.3289821,"locality","Stockton-on-Tees, UK","locality,political","OK","HwStockton"
-1.304425,36.8294832,"route","Shimo la Tewa Rd, Nairobi, Kenya","route","OK","StantechM"
48.8593751,2.3724584,"establishment","56 Boulevard Richard-Lenoir, 75011 Paris, France","establishment,point_of_interest,store","OK","andrepietri"
31.791702,-7.09262,"country","Morocco","country,political","OK","Leconomiste_"
47.7978238,-103.296182,"establishment","810 3rd Ave SW, Watford City, ND 58854, USA","establishment,lodging,point_of_interest","OK","McconwayAlice"
41.5381124,2.4447406,"locality","Mataró, Barcelona, Spain","locality,political","OK","apeecatalunya"
10.8505159,76.2710833,"administrative_area_level_1","Kerala, India","administrative_area_level_1,political","OK","CituKerala"
51.5073509,-0.1277583,"locality","London, UK","locality,political","OK","bartsNHSlibrary"
9.0764785,7.398574,"locality","Abuja, Nigeria","locality,political","OK","BrookfieldNG"
51.4825655,-0.1322369,"embassy","33 Nine Elms Ln, Nine Elms, London SW11 7US, UK","embassy,establishment,point_of_interest","OK","mrsoccer123"
36.8968908,30.7133233,"locality","Antalya, Turkey","locality,political","OK","HaberimizvarNet"
30.2841224,-81.3961338,"locality","Jacksonville Beach, FL, USA","locality,political","OK","BethANJax"
14.5995124,120.9842195,"locality","Manila, Metro Manila, Philippines","locality,political","OK","dzrhnews"
28.1472852,77.3259878,"locality","Palwal, Haryana 121102, India","locality,political","OK","MohitGu63854280"
50.8503396,4.3517103,"locality","Brussels, Belgium","locality,political","OK","MyEDF"
-6.2087634,106.845599,"colloquial_area","Jakarta, Indonesia","colloquial_area,locality,political","OK","VIVAcoid"
4.210484,101.975766,"country","Malaysia","country,political","OK","bharianmy"
55.378051,-3.435973,"country","United Kingdom","country,political","OK","AGPartnership"
56.462018,-2.970721,"locality","Dundee, UK","locality,political","OK","LvanBlerk"
20.593684,78.96288,"country","India","country,political","OK","NotAddie69"
25.7780623,73.331147,"locality","Pali, Rajasthan 306401, India","locality,political","OK","Praveen36486479"
-1.2920659,36.8219462,"locality","Nairobi, Kenya","locality,political","OK","DanielSSchearf"
8.5241391,76.9366376,"locality","Thiruvananthapuram, Kerala, India","locality,political","OK","thegovindspace"
-16.9203867,145.775308,"establishment","151 Abbott St, Cairns City QLD 4870, Australia","establishment,library,point_of_interest","OK","OzSpam"
-0.023559,37.906193,"country","Kenya","country,political","OK","TWEETYFARZ"
19.9974533,73.7898023,"locality","Nashik, Maharashtra, India","locality,political","OK","FobNasik"
28.6139391,77.2090212,"locality","New Delhi, Delhi, India","locality,political","OK","LPAI_Official"
0.3288156,32.5537777,"establishment","Masiro Rd, Kampala, Uganda","establishment,point_of_interest,tourist_attraction","OK","BuffaloSoldierA"
25.2048493,55.2707828,"locality","Dubai - United Arab Emirates","locality,political","OK","Morganaylor2"
41.1188801,1.2444436,"administrative_area_level_4","Municipality of Tarragona, Tarragona, Spain","administrative_area_level_4,political","OK","jesusgellida"
56.130366,-106.346771,"country","Canada","country,political","OK","Lola_estereo"
23.424076,53.847818,"country","United Arab Emirates","country,political","OK","UAEVOICE_Eng"
22.2756562,39.1132757,"locality","Thuwal Saudi Arabia","locality,political","OK","jayrfrancis"
41.2033216,-77.1945247,"administrative_area_level_1","Pennsylvania, USA","administrative_area_level_1,political","OK","SaraSmallTV"
44.9246382,-63.5380428,"locality","Enfield, NS, Canada","locality,political","OK","ReprtrPatHealey"
55.378051,-3.435973,"country","United Kingdom","country,political","OK","HotelTcs"
48.856614,2.3522219,"locality","Paris, France","locality,political","OK","Europe_1_Studio"
25.2048493,55.2707828,"locality","Dubai - United Arab Emirates","locality,political","OK","DHA_Dubai"
51.5073509,-0.1277583,"locality","London, UK","locality,political","OK","WorkWithCancer"
51.481581,-3.17909,"locality","Cardiff, UK","locality,political","OK","ZERO2FIVE_Cym"
55.378051,-3.435973,"country","United Kingdom","country,political","OK","DRTomlinsonEP"
38.1679119,-78.3400075,"neighborhood","Burnley, Rivanna, VA 22923, USA","neighborhood,political","OK","DizzyClaret"
25.3434554,82.4779833,"locality","Gyanpur, Uttar Pradesh 221304, India","locality,political","OK","tripathy_aakash"
19.0759837,72.8776559,"locality","Mumbai, Maharashtra, India","locality,political","OK","SambaZaraThamba"
55.378051,-3.435973,"country","United Kingdom","country,political","OK","ngretton"
41.5911589,1.5208624,"administrative_area_level_1","Catalonia, Spain","administrative_area_level_1,political","OK","govern"
61.4977524,23.7609535,"locality","Tampere, Finland","locality,political","OK","uberisationrrr"
-26.2485377,27.8540323,"locality","Soweto, South Africa","locality,political","OK","AfroWestMedia"
19.0759837,72.8776559,"locality","Mumbai, Maharashtra, India","locality,political","OK","SpinAYarnIndia"
-37.4713077,144.7851531,"administrative_area_level_1","Victoria, Australia","administrative_area_level_1,political","OK","JennieJHill"
20.593684,78.96288,"country","India","country,political","OK","AtotalmessAnshu"
37.020001,-4.5593676,"locality","29200 Antequera, Málaga, Spain","locality,political","OK","SaludNorteMalag"
51.5073509,-0.1277583,"locality","London, UK","locality,political","OK","GDR_tweets"
38.9071923,-77.0368707,"locality","Washington, DC, USA","locality,political","OK","TomBollyky"
41.1171432,16.8718715,"locality","Bari, Metropolitan City of Bari, Italy","locality,political","OK","geronimo_73"
52.240477,-0.902656,"locality","Northampton, UK","locality,political","OK","brownielocs159"
14.6090537,121.0222565,"administrative_area_level_1","Metro Manila, Philippines","administrative_area_level_1,political","OK","dearscarjames"
38.1398141,-1.366216,"administrative_area_level_1","Region of Murcia, Murcia, Spain","administrative_area_level_1,political","OK","PSOE_RM"
52.6368778,-1.1397592,"locality","Leicester, UK","locality,political","OK","cwwalker10"
16.8298032,100.2614729,"administrative_area_level_2","Mueang Phitsanulok District, Phitsanulok, Thailand","administrative_area_level_2,political","OK","galoebsland"
47.3768866,8.541694,"locality","Zürich, Switzerland","locality,political","OK","TheVolawatcher"
48.856614,2.3522219,"locality","Paris, France","locality,political","OK","Fair_finance"
51.5073509,-0.1277583,"locality","London, UK","locality,political","OK","APRIL_charity"
41.3850639,2.1734035,"locality","Barcelona, Spain","locality,political","OK","wearewater"
28.5355161,77.3910265,"locality","Noida, Uttar Pradesh, India","locality,political","OK","NBeststudios"
35.0843859,-106.650422,"locality","Albuquerque, NM, USA","locality,political","OK","RedAndGreen505"
17.385044,78.486671,"locality","Hyderabad, Telangana, India","locality,political","OK","cbsairhyd"
46.227638,2.213749,"country","France","country,political","OK","mmatallah"
-2.1894128,-79.8890662,"locality","Guayaquil, Ecuador","locality,political","OK","EViteriOft"
18.5204303,73.8567437,"locality","Pune, Maharashtra, India","locality,political","OK","ThatSaneGuy_"
37.0402034,-95.6073142,"church","604 E 4th St, Coffeyville, KS 67337, USA","church,establishment,place_of_worship,point_of_interest","OK","RodgerPrice13"
50.8503396,4.3517103,"locality","Brussels, Belgium","locality,political","OK","chris_skriver"
41.5911589,1.5208624,"administrative_area_level_1","Catalonia, Spain","administrative_area_level_1,political","OK","alfondec"
40.4167754,-3.7037902,"locality","Madrid, Spain","locality,political","OK","ExpoDronicaMAD"
51.481581,-3.17909,"locality","Cardiff, UK","locality,political","OK","ZERO2FIVE_"
26.1445169,91.7362365,"locality","Guwahati, Assam, India","locality,political","OK","DpAM__"
56.9496487,24.1051865,"locality","Riga, Latvia","locality,political","OK","LV_portals"
40.463667,-3.74922,"country","Spain","country,political","OK","Vityspain"
41.87194,12.56738,"country","Italy","country,political","OK","PaginaVox"
53.3498053,-6.2603097,"locality","Dublin, Ireland","locality,political","OK","DubLoony"
10.8230989,106.6296638,"locality","Ho Chi Minh City, Vietnam","locality,political","OK","Le_Van_Tan"
25.1288099,56.3264849,"locality","Fujairah - United Arab Emirates","locality,political","OK","raymond98martin"
46.227638,2.213749,"country","France","country,political","OK","dombenatouil"
46.227638,2.213749,"country","France","country,political","OK","MaKarDoue"
36.9914194,35.3308285,"locality","Adana, Reşatbey, Seyhan/Adana, Turkey","locality,political","OK","tkucukcan"
49.27948,-123.1172668,"beauty_salon","410 Robson St, Vancouver, BC V6B 0H3, Canada","beauty_salon,establishment,hair_care,point_of_interest,store","OK","ActionTime"
43.9653889,-70.8226541,"colloquial_area","New England, USA","colloquial_area,political","OK","KLemleyRoberts"
55.378051,-3.435973,"country","United Kingdom","country,political","OK","RedCrossPolicy"
6.5243793,3.3792057,"locality","Lagos, Nigeria","locality,political","OK","WiGRadio"
35.1855659,33.3822764,"locality","Nicosia, Cyprus","locality,political","OK","PIOcy"
42.3600825,-71.0588801,"locality","Boston, MA, USA","locality,political","OK","WBOP"
49.817492,15.472962,"country","Czechia","country,political","OK","EuroZpravycz"
48.2248956,16.356965,"postal_code","1090 Vienna, Austria","postal_code","OK","usembvienna"
30.000248,-95.2805254,"establishment","9494 Humble Westfield Rd, Humble, TX 77338, USA","establishment,point_of_interest","OK","Bctuab"
41.9270367,-73.9973608,"locality","Kingston, NY 12401, USA","locality,political","OK","PiltdownSupermn"
53.381129,-1.470085,"locality","Sheffield, UK","locality,political","OK","natalieben"
9.081999,8.675277,"country","Nigeria","country,political","OK","Jay_Coach1"
53.4807593,-2.2426305,"locality","Manchester, UK","locality,political","OK","thinkdigicon"
